PK;NOMBRE;DESCRIPCION-ENTIDAD;HORARIO;EQUIPAMIENTO;TRANSPORTE;DESCRIPCION;ACCESIBILIDAD;CONTENT-URL;NOMBRE-VIA;CLASE-VIAL;TIPO-NUM;NUM;PLANTA;PUERTA;ESCALERAS;ORIENTACION;LOCALIDAD;PROVINCIA;CODIGO-POSTAL;BARRIO;DISTRITO;COORDENADA-X;COORDENADA-Y;LATITUD;LONGITUD;TELEFONO;FAX;EMAIL;TIPO;
7933;"Consulado de Argentina";"";"";"";"Metro: Alonso Martínez (líneas 4, 5 y 10).  Bus: 7, 21, C03, 37, 3, 14, 150, 27, 45, 5.  Bicimad: Estaciones 8 (plaza de Alnso Martínez, 5), 10 (calle marqués de la Ensenada, 16), 104 (paseo de la Castellana, 4).  Aparcamiento: Almagro (12) calle Almagro 11; Villa de Paríz (67), plaza Villa de París.";"";"3";"http://www.madrid.es/sites/v/index.jsp?vgnextchannel=bfa48ab43d6bb410VgnVCM100000171f5a0aRCRD&vgnextoid=654df3216571c010VgnVCM1000000b205a0aRCRD";"FERNANDO EL SANTO";"CALLE";"V";"15";"BAJA";"";"";"";"MADRID";"MADRID";"28010";"ALMAGRO";"CHAMBERI";"441245";"4475517";"40.42821624776458";"-3.6926659313220473";"914 025 115";"913 091 996";"consulado-madrid@portalargentino.net";"/contenido/entidadesYorganismos/OrganismosInternacionales/EmbajadasConsulados"; 
10197947;"Consulado de Belice";"";"";"";"Metro: Concha Espina (línea 9), Colombia (líneas 8 y 9).  Bus: 51, 7, 120, 43.  Bicimad: Estaciones 148 (calle Serrano, 210), 159 (paseo de la Habana, 63).";"";"3";"http://www.madrid.es/sites/v/index.jsp?vgnextchannel=bfa48ab43d6bb410VgnVCM100000171f5a0aRCRD&vgnextoid=38bff39b5c598510VgnVCM2000001f4a900aRCRD";"TALAVERA";"CALLE";"V";"9";"";"";"";"";"MADRID";"MADRID";"28016";"HISPANOAMERICA";"CHAMARTIN";"442258";"4478302";"40.453375787625184";"-3.6809775442454438";"913 520 419";"917 157 638";"alvarezdetoledo@terra.es";"/contenido/entidadesYorganismos/OrganismosInternacionales/EmbajadasConsulados"; 
21112;"Consulado de Bolivia";"";"";"";"Metro: Cruz del Rayo (línea 9), Prosperidad (línea 4), República Argentina (línea 6).  Bus: 29, 52, 73, 9, C2.  Bicimad: Estación 146 (calle María Francisca, 1).";"";"3";"http://www.madrid.es/sites/v/index.jsp?vgnextchannel=bfa48ab43d6bb410VgnVCM100000171f5a0aRCRD&vgnextoid=11e87d448b51c010VgnVCM2000000c205a0aRCRD";"AVIADOR LINDBERGH";"CALLE";"V";"3";"";"";"";"";"MADRID";"MADRID";"28002";"EL VISO";"CHAMARTIN";"442360";"4477088";"40.44244658703542";"-3.6796645119265317";"913 265 028";"913 265 016";"colivian-madrid@rree.gov.bo";"/contenido/entidadesYorganismos/OrganismosInternacionales/EmbajadasConsulados"; 
64260;"Consulado de Brasil";"";"";"";"Metro: Serrano (línea 4), Colón (línea 4).  Bus: 21, 53, 1, 19, 51, 74, 9, 14, 150, 27, 45, 5.  Cercanías Renfe: Recoletos (líneas C1, C2, C7, C10 y Regional).  Bicimad: Estaciones 93 (calle Goya, 1) y 106 a y b (calle Serrano, 34), 104 (paseo de la Castellana, 4), 105 (calle Serrano, 54).  Aparcamiento: Colón (2), plaza de Colón.";"";"3";"http://www.madrid.es/sites/v/index.jsp?vgnextchannel=bfa48ab43d6bb410VgnVCM100000171f5a0aRCRD&vgnextoid=d3a97589f451c010VgnVCM1000000b205a0aRCRD";"GOYA";"CALLE";"V";"5";"";"";"";"y 7 pasaje";"MADRID";"MADRID";"28001";"RECOLETOS";"SALAMANCA";"441675";"4475445";"40.42571641206772";"-3.688867957275151";"917 021 220";"913 101 630";"consular.cgmadri@itamaraty.gov.br";"/contenido/entidadesYorganismos/OrganismosInternacionales/EmbajadasConsulados"; 
10197938;"Consulado de Bélgica";"";"";"";"Metro: Serrano (línea 4), Colón (línea 4), Ruben Darío (línea 5).  Bus: 14, 150, 27, 45, 5, 1, 19, 51, 74, 9  Bicimad: Estaciones 104 (paseo de la Castellana, 4) y 105 (calle Serrano, 54), 103 (calle José Ortega y Gasset, 4).  Aparcamiento: Serrano II (39), calle Serrano entre Ortega y Gasset y Hermosilla.";"";"3";"http://www.madrid.es/sites/v/index.jsp?vgnextchannel=bfa48ab43d6bb410VgnVCM100000171f5a0aRCRD&vgnextoid=c20ff39b5c598510VgnVCM2000001f4a900aRCRD";"CASTELLANA";"PASEO";"V";"18";"6";"Izquierda";"";"";"MADRID";"MADRID";"28046";"RECOLETOS";"SALAMANCA";"441556";"4475560";"40.428625519984514";"-3.6890037404933405";"915 776 300";"914 318 166";"madrid@diplobel.fed.be";"/contenido/entidadesYorganismos/OrganismosInternacionales/EmbajadasConsulados"; 
7934;"Consulado de Chile";"";"";"";"Metro: Rubén Darío (línea 5), Iglesia (línea 1), Gregorio Marañón (líneas 7 y 10).  Bus: 147, 40, 16, 5, 61.  Bicimad: Estación 125 (calle Fernández de la Hoz, 29).";"";"3";"http://www.madrid.es/sites/v/index.jsp?vgnextchannel=bfa48ab43d6bb410VgnVCM100000171f5a0aRCRD&vgnextoid=8a6df3216571c010VgnVCM1000000b205a0aRCRD";"RAFAEL CALVO";"CALLE";"V";"18";"5";"";"";"";"MADRID";"MADRID";"28010";"ALMAGRO";"CHAMBERI";"441120";"4476146";"40.43387373574068";"-3.6941977264344406";"913 190 763 / 913 199 559";"913 193 278";"";"/contenido/entidadesYorganismos/OrganismosInternacionales/EmbajadasConsulados"; 
7935;"Consulado de Colombia";"";"";"";"Metro: Banco de España (línea 2), Retiro (linea 2).  Bus: 19, 203, E1, 14, 27, 37, 45, C03.  Cercanías Renfe: Recoletos (líneas C1, C2, C7, C8 y C10).  Bicimad: Estaciones 86 (Cibeles, paseo del Prado, 1), 65 (calle Antonio Maura, 15), 60 (plaza de la Independencia, 6).  Aparcamiento: Montalbán (49), calle Montalbán (entre calle Alfonso XI y Paseo del Prado).";"";"3";"http://www.madrid.es/sites/v/index.jsp?vgnextchannel=bfa48ab43d6bb410VgnVCM100000171f5a0aRCRD&vgnextoid=af8df3216571c010VgnVCM1000000b205a0aRCRD";"ALFONSO XI";"CALLE";"V";"6";"";"";"";"";"MADRID";"MADRID";"28014";"LOS JERONIMOS";"RETIRO";"441408";"4474455";"40.418660732315";"-3.690646590927509";"917 452 590";"917 450 471";"cmadrid@cancilleria.gov.co";"/contenido/entidadesYorganismos/OrganismosInternacionales/EmbajadasConsulados"; 
169901;"Consulado de Costa Rica";"";"";"";"Metro: Nuevos Ministerios (línea 6, 8, 10), Gregorio Marañón (línea 7, 10), Rios Rosas (línea 1).  Bus: 12, 45, 5.  Cercanías Renfe: Nuevos Ministerios (C1, C2, C3, C4, C7, C10 Y Regional).  Bicimad: Estación 134 (calle María de Guzmán, 58).";"";"3";"http://www.madrid.es/sites/v/index.jsp?vgnextchannel=bfa48ab43d6bb410VgnVCM100000171f5a0aRCRD&vgnextoid=a0b6085f5181c010VgnVCM1000000b205a0aRCRD";"RIOS ROSAS";"CALLE";"V";"54";"Bajo";"Derecha";"";"";"MADRID";"MADRID";"28003";"RIOS ROSAS";"CHAMBERI";"441017";"4476999";"40.441550649362455";"-3.695491196074582";"913 459 622 / 913 459 521";"913 533 709";"consulado@embcr.org";"/contenido/entidadesYorganismos/OrganismosInternacionales/EmbajadasConsulados"; 
7936;"Consulado de Cuba";"";"";"";"Metro: Pío XII (línea 9), Colombia (líneas 8 y 9).  Bus: 14, 150.";"";"3";"http://www.madrid.es/sites/v/index.jsp?vgnextchannel=bfa48ab43d6bb410VgnVCM100000171f5a0aRCRD&vgnextoid=32adf3216571c010VgnVCM1000000b205a0aRCRD";"LA HABANA";"PASEO";"V";"194";"";"";"";"Entrada por calle Macarena";"MADRID";"MADRID";"28036";"NUEVA ESPAÑA";"CHAMARTIN";"442323";"4479260";"40.46201039787292";"-3.680298066003204";"";"914 021 948";"";"/contenido/entidadesYorganismos/OrganismosInternacionales/EmbajadasConsulados"; 
7874;"Consulado de Ecuador";"";"";"";"Bus: 52.";"";"3";"http://www.madrid.es/sites/v/index.jsp?vgnextchannel=bfa48ab43d6bb410VgnVCM100000171f5a0aRCRD&vgnextoid=6e6ef3216571c010VgnVCM1000000b205a0aRCRD";"COMANDANTE AZCARRAGA";"CALLE";"V";"2";"";"";"";"sin número";"MADRID";"MADRID";"28016";"NUEVA ESPAÑA";"CHAMARTIN";"443260";"4479185";"40.46140515289631";"-3.6692400297309793";"913 430 250";"913 454 523";"cecumadrid@cancilleria.gob.ec";"/contenido/entidadesYorganismos/OrganismosInternacionales/EmbajadasConsulados"; 
7876;"Consulado de El Salvador";"";"";"";"Metro: Gregorio Marañón (líneas 7 y 10), Rubén Darío (línea 5), Núñez de Balboa (línea 5 y 9).  Bus: 16, 19, 51, 9, 61, 14, 150, 27, 45, 12, 147, 40, 7.  Bicimad: Estación 141 (paseo de la Castellana, 43).  Aparcamiento: Serrano I (62), calle Serrano entre Heramnos Becquer y Marqués de Villamejor.";"";"3";"http://www.madrid.es/sites/v/index.jsp?vgnextchannel=bfa48ab43d6bb410VgnVCM100000171f5a0aRCRD&vgnextoid=57cdf3216571c010VgnVCM1000000b205a0aRCRD";"GENERAL ORAA";"CALLE";"V";"9";"5";"Interior Izquierda";"";"";"MADRID";"MADRID";"28006";"CASTELLANA";"SALAMANCA";"441727";"4476424";"40.43642084178578";"-3.687067152583129";"915 612 524";"915 644 256";"acanosa@rree.gob.sv";"/contenido/entidadesYorganismos/OrganismosInternacionales/EmbajadasConsulados"; 
7049816;"Consulado de Etiopía";"";"";"";"Metro: Retiro (línea 2), Príncipe de Vergara (líneas 2 y 9), Velázquez (línea 4), Serrano (línea 4).  Bus: 1, 19, 51, 74, 9, 2, 20, 28, 146, 15, 52.  Cercanías Renfe: Recoletos (líneas C1, C2, C7, C10 y Regional).  Bicimad: Estación 102 (calle Alcalá, 95).";"";"3";"http://www.madrid.es/sites/v/index.jsp?vgnextchannel=bfa48ab43d6bb410VgnVCM100000171f5a0aRCRD&vgnextoid=874ef038b71ff310VgnVCM1000000b205a0aRCRD";"VELAZQUEZ";"CALLE";"V";"3";"4";"";"";"";"MADRID";"MADRID";"28001";"RECOLETOS";"SALAMANCA";"441920";"4474765";"40.42148926032306";"-3.6846401694200934";"917 810 726";"915 779 956";"info@conshonethiopie-madrid.org";"/contenido/entidadesYorganismos/OrganismosInternacionales/EmbajadasConsulados"; 
7938;"Consulado de Francia";"";"";"";"Metro: Colón (línea 4).  Bus: 37, 21, C03, 14, 150, 27, 45, 5, 53.  Cercanías Renfe: Recoletos (líneas C1, C2, C7, C10 y Regional).  Bicimad: Estaciones 10 (calle Marqués de la Ensenada, 16), 26 (plaza de las Salesas, 7).  Aparcamientos: Garaje Piamonte (96), Piamonte); Colón (2), plaza de Colón.";"";"3";"http://www.madrid.es/sites/v/index.jsp?vgnextchannel=bfa48ab43d6bb410VgnVCM100000171f5a0aRCRD&vgnextoid=e9ddf3216571c010VgnVCM1000000b205a0aRCRD";"MARQUES DE LA ENSENADA";"CALLE";"V";"10";"";"C";"";"";"MADRID";"MADRID";"28004";"JUSTICIA";"CENTRO";"441266";"4475103";"40.424488220772155";"-3.692380132628246";"917 007 800";"917 007 801";"";"/contenido/entidadesYorganismos/OrganismosInternacionales/EmbajadasConsulados"; 
7049929;"Consulado de Gambia";"";"";"";"Metro: Estación del Arte (línea 1).  Bus: 19.  Cercanías Renfe: Atocha (líneas C1, C2, C3, C4, C5, C7, C8, C10).  Bicimad: Estación 68 (calle Espalter, 1).";"";"3";"http://www.madrid.es/sites/v/index.jsp?vgnextchannel=bfa48ab43d6bb410VgnVCM100000171f5a0aRCRD&vgnextoid=2127f038b71ff310VgnVCM1000000b205a0aRCRD";"ALFONSO XII";"CALLE";"V";"46";"";"";"";"";"MADRID";"MADRID";"28014";"LOS JERONIMOS";"RETIRO";"441538";"4473783";"40.4126161626266";"-3.6890525764985806";"914 203 517";"914 200 886";"";"/contenido/entidadesYorganismos/OrganismosInternacionales/EmbajadasConsulados"; 
11286783;"Consulado de Islandia";"";"";"";"";"";"3";"http://www.madrid.es/sites/v/index.jsp?vgnextchannel=bfa48ab43d6bb410VgnVCM100000171f5a0aRCRD&vgnextoid=2a86f06eec566710VgnVCM2000001f4a900aRCRD";"POLLENSA";"CALLE";"V";"2";"2";"Oficina 17";"";"";"LAS ROZAS DE MADRID";"MADRID";"28290";"RECOLETOS";"";"";"";"";"";"915 904 539 / 607 412 988";"";"Icelandic.consulate.madrid@gmail.com";"/contenido/entidadesYorganismos/OrganismosInternacionales/EmbajadasConsulados"; 
7843901;"Consulado de Jamaica";"";"";"";"Metro: Banco de España (línea 2).  Bus: 19.  Bicimad: Estación 65 (calle Antonio Maura, 15).  Aparcamiento: Montalbán (49), calle Montalbán entre calle Alfonso XI y paseo del Prado.";"";"3";"http://www.madrid.es/sites/v/index.jsp?vgnextchannel=bfa48ab43d6bb410VgnVCM100000171f5a0aRCRD&vgnextoid=1400e05e0a60b410VgnVCM2000000c205a0aRCRD";"JUAN DE MENA";"CALLE";"V";"6";"Bajo";"A";"";"";"MADRID";"MADRID";"28014";"LOS JERONIMOS";"RETIRO";"441374";"4474297";"40.4172349956707";"-3.691032771246455";"915 766 138";"";"";"/contenido/entidadesYorganismos/OrganismosInternacionales/EmbajadasConsulados"; 
169906;"Consulado de Macedonia";"";"";"";"Metro: Valdeacederas (línea 1), Plaza de Castilla (línea 1, 9, 10).  Bus: 149, 147, 27, 5.  Aparcamiento: José Castán Tobeñas (30), calle José Castán Tobeñas.";"";"3";"http://www.madrid.es/sites/v/index.jsp?vgnextchannel=bfa48ab43d6bb410VgnVCM100000171f5a0aRCRD&vgnextoid=c5d6085f5181c010VgnVCM1000000b205a0aRCRD";"CAPITAN HAYA";"CALLE";"V";"60";"6";"";"";"";"MADRID";"MADRID";"28020";"CASTILLEJOS";"TETUAN";"441379";"4479388";"40.46310214118726";"-3.691439378838705";"915 706 641";"";"";"/contenido/entidadesYorganismos/OrganismosInternacionales/EmbajadasConsulados"; 
10197959;"Consulado de Mali";"";"";"";"Metro: Alonso Martínez (línea 4, 5 y 10), Iglesia (línea 1), Rubén Darío (línea 5).  Bus: 7, 147, 40.  Bicimad: Estación 198 (glorieta Rubén Darío, 2).  Aparcamiento: Almagro (12), calle Almagro 11.";"";"3";"http://www.madrid.es/sites/v/index.jsp?vgnextchannel=bfa48ab43d6bb410VgnVCM100000171f5a0aRCRD&vgnextoid=a030f39b5c598510VgnVCM2000001f4a900aRCRD";"ZURBANO";"CALLE";"V";"29";"2";"Izquierda";"";"";"MADRID";"MADRID";"28010";"ALMAGRO";"CHAMBERI";"441171";"4475861";"40.4313099318025";"-3.693570096673511";"";"913 105 256";"";"/contenido/entidadesYorganismos/OrganismosInternacionales/EmbajadasConsulados"; 
7943;"Consulado de Marruecos";"";"";"";"Metro: Cruz del Rayo (línea 9), Concha Espina (línea 9), República Argentina (línea 6).  Bus: 16, 19, 51, 7.  Bicimad: Estación 147 (avenida del Doctor Arce, 45).";"";"3";"http://www.madrid.es/sites/v/index.jsp?vgnextchannel=bfa48ab43d6bb410VgnVCM100000171f5a0aRCRD&vgnextoid=242ef3216571c010VgnVCM1000000b205a0aRCRD";"LEIZARAN";"CALLE";"V";"31";"";"";"";"";"MADRID";"MADRID";"28002";"EL VISO";"CHAMARTIN";"442278";"4477681";"40.44778292174744";"-3.6806852423855867";"912 109 300";"912 049 547";"consuladomarr.madrid@gmail.com";"/contenido/entidadesYorganismos/OrganismosInternacionales/EmbajadasConsulados"; 
10197971;"Consulado de Mongolia";"";"";"";"Metro: Santiago Bernabeu (línea 10), Nuevos Ministerios (línea 6, 8 y 10).  Bus: 126, 14, 147, 150, 27, 40, 120, 43.  Cercanías Renfe: Nuevos Ministerios (líneas C1, C2, C3, C4, C7, C10 y Regional).  Bicimad: Estación 153 (avenida General Perón, 36).  Aparcamiento: Orense (22) avenida General Perón, 27.";"";"3";"http://www.madrid.es/sites/v/index.jsp?vgnextchannel=bfa48ab43d6bb410VgnVCM100000171f5a0aRCRD&vgnextoid=1bf0f39b5c598510VgnVCM2000001f4a900aRCRD";"CASTELLANA";"PASEO";"V";"95";"15";"";"";"";"MADRID";"MADRID";"28046";"CUATRO CAMINOS";"TETUAN";"441368";"4478126";"40.451727995161356";"-3.6914567452654548";"914 186 987";"";"";"/contenido/entidadesYorganismos/OrganismosInternacionales/EmbajadasConsulados"; 
33216;"Consulado de Mónaco";"";"";"";"Bus: 120, 122.";"";"3";"http://www.madrid.es/sites/v/index.jsp?vgnextchannel=bfa48ab43d6bb410VgnVCM100000171f5a0aRCRD&vgnextoid=2d4d059cb751c010VgnVCM2000000c205a0aRCRD";"MADRO&amp;Ntilde;OS";"AVENIDA";"V";"21";"4";"B";"";"";"MADRID";"MADRID";"28043";"PIOVERA";"HORTALEZA";"445231";"4478438";"40.454801307058105";"-3.6459264433419185";"913 002 406";"";"philippeguillaumet@gmail.com";"/contenido/entidadesYorganismos/OrganismosInternacionales/EmbajadasConsulados"; 
169933;"Consulado de Nicaragua";"";"";"";"Metro: Arturo Soria (línea 4) y Esperanza (línea 4).  Bus: 120, 122.";"";"3";"http://www.madrid.es/sites/v/index.jsp?vgnextchannel=bfa48ab43d6bb410VgnVCM100000171f5a0aRCRD&vgnextoid=7d07085f5181c010VgnVCM1000000b205a0aRCRD";"PUERTO DE SANTA MARIA";"CALLE";"V";"73";"";"B";"";"";"MADRID";"MADRID";"28043";"CANILLAS";"HORTALEZA";"444684";"4478943";"40.45931841429917";"-3.6524238447949635";"915 555 510 / 915 555 513";"915 555 737";"";"/contenido/entidadesYorganismos/OrganismosInternacionales/EmbajadasConsulados"; 
61823;"Consulado de Omán";"";"";"";"Metro: Cuzco (línea 10), Colombia (líneas 8 y 9).  Bus: 11, 40, 150, 14.  Bicimad: Estación 158 (avenida Alberto Alcocer, 22).";"";"3";"http://www.madrid.es/sites/v/index.jsp?vgnextchannel=bfa48ab43d6bb410VgnVCM100000171f5a0aRCRD&vgnextoid=e5bc8ed67151c010VgnVCM2000000c205a0aRCRD";"LIGULA";"CALLE";"V";"6";"2";"H";"";"";"MADRID";"MADRID";"28036";"HISPANOAMERICA";"CHAMARTIN";"442018";"4478799";"40.45783627847188";"-3.683853173977557";"914 586 261 / 914 586 081";"";"";"/contenido/entidadesYorganismos/OrganismosInternacionales/EmbajadasConsulados"; 
169935;"Consulado de Panamá";"";"";"";"Metro: Ventura Rodriguez (línea 3), Arg&amp;uuml;elles (líneas 3, 4 y 6).  Bus: 62, 74.  Bicimad: Estación 113 (paseo Pintor Rosales, 38).";"";"3";"http://www.madrid.es/sites/v/index.jsp?vgnextchannel=bfa48ab43d6bb410VgnVCM100000171f5a0aRCRD&vgnextoid=0027085f5181c010VgnVCM1000000b205a0aRCRD";"PINTOR ROSALES";"PASEO";"V";"30";"";"";"";"";"MADRID";"MADRID";"28008";"ARGUELLES";"MONCLOA-ARAVACA";"438954";"4475413";"40.42711440647153";"-3.719662687079779";"915 765 001 / 915 767 668";"";"";"/contenido/entidadesYorganismos/OrganismosInternacionales/EmbajadasConsulados"; 
5758671;"Consulado de Paraguay";"";"";"";"Metro: Colombia (líneas 8, 9).  Bus: 11, 40, 150, 14.  Bicimad: Estación 254 (avenida Pío XII, 3).";"";"3";"http://www.madrid.es/sites/v/index.jsp?vgnextchannel=bfa48ab43d6bb410VgnVCM100000171f5a0aRCRD&vgnextoid=65e91ebe1f5c9210VgnVCM2000000c205a0aRCRD";"ALBERTO ALCOCER";"AVENIDA";"V";"45";"1";"";"";"";"MADRID";"MADRID";"28016";"NUEVA ESPAÑA";"CHAMARTIN";"442396";"4478908";"40.4588444878455";"-3.679405144214614";"913 082 746 / 913 085 319";"913 084 905";"consuladogmpy@yahoo.es";"/contenido/entidadesYorganismos/OrganismosInternacionales/EmbajadasConsulados"; 
7944;"Consulado de Perú";"";"";"";"Metro: Ventura Rodríguez (línea 3), Arg&amp;uuml;elles (línea 3, 4 y 6).  Bus: 62, 74.  Bicimad: Estación 113 (paseo Pintor Rosales, 38).  Aparcamiento: Marqués de Urquijo (63), Marqués de Urguijo entre calle Princesa y calle Juan Álvarez de Mendizabal.";"";"3";"http://www.madrid.es/sites/v/index.jsp?vgnextchannel=bfa48ab43d6bb410VgnVCM100000171f5a0aRCRD&vgnextoid=b63ef3216571c010VgnVCM1000000b205a0aRCRD";"PINTOR ROSALES";"PASEO";"V";"30";"";"";"";"";"MADRID";"MADRID";"28008";"ARGUELLES";"MONCLOA-ARAVACA";"438954";"4475413";"40.42711354506284";"-3.719659854297127";"915 629 022 / 915 629 012";"915 629 111";"info@consuladoperumadrid.org";"/contenido/entidadesYorganismos/OrganismosInternacionales/EmbajadasConsulados"; 
7952;"Consulado de Reino Unido de Gran Bretaña e Irlanda del Norte";"";"";"";"Metro: Begoña (línea 10).  Bus: 124, 134, 135, 173, 175, 176, 178, 67, 147, 174, 66.  Bicimad: Estación 248 (calle Sinesio Delgado, 2).";"";"3";"http://www.madrid.es/sites/v/index.jsp?vgnextchannel=bfa48ab43d6bb410VgnVCM100000171f5a0aRCRD&vgnextoid=db5ef3216571c010VgnVCM1000000b205a0aRCRD";"CASTELLANA";"PASEO";"V";"259";"";"";"";"D Torre Espacio";"MADRID";"MADRID";"28046";"LA PAZ";"FUENCARRAL-EL PARDO";"441744";"4480809";"40.47592404926307";"-3.6872691224974417";"917 146 400";"917 146 401";"";"/contenido/entidadesYorganismos/OrganismosInternacionales/EmbajadasConsulados"; 
5328095;"Consulado de República Centroafricana";"";"";"";"";"";"3";"http://www.madrid.es/sites/v/index.jsp?vgnextchannel=bfa48ab43d6bb410VgnVCM100000171f5a0aRCRD&vgnextoid=6213211ea9e21210VgnVCM2000000c205a0aRCRD";"SANTA ELVIRA";"CALLE";"V";"25";"";"";"";"";"MADRID";"MADRID";"28023";"ARAVACA";"MONCLOA-ARAVACA";"432706";"4478702";"40.45626059848089";"-3.7936614755018385";"917 151 607";"";"";"/contenido/entidadesYorganismos/OrganismosInternacionales/EmbajadasConsulados"; 
78153;"Consulado de República Dominicana";"";"";"";"Metro: Santiago Bernabeu (línea 10), Nuevos Ministerios (líneas 6, 8 y 10).  Bus: 126, 147, 150, 27, 40, 14, 120.  Cercanías Renfe: Nuevos Ministerios (C1, C2, C3, C4, C7, C10 y Regional).  Bicimad: Estaciones 150 (Paseo de la Castellana, 122), 149 (paseo de la Habana, 42).";"";"3";"http://www.madrid.es/sites/v/index.jsp?vgnextchannel=bfa48ab43d6bb410VgnVCM100000171f5a0aRCRD&vgnextoid=78cc8ed67151c010VgnVCM2000000c205a0aRCRD";"CASTELLANA";"PASEO";"V";"128";"1";"";"";"";"MADRID";"MADRID";"28046";"EL VISO";"CHAMARTIN";"441470";"4477926";"40.449933495141345";"-3.6902354909034027";"914 315 321 / 914 350 227";"915 761 168";"info@consuladordmadrid.com";"/contenido/entidadesYorganismos/OrganismosInternacionales/EmbajadasConsulados"; 
5758707;"Consulado de Salomon";"";"";"";"Metro: República Argentina (línea 6), Avenida de América (líneas 4, 6, 7 y 9).  Bus: 9, 16, 19, 51.  Bicimad: Estación 140 (calle Velázquez, 130).";"";"3";"http://www.madrid.es/sites/v/index.jsp?vgnextchannel=bfa48ab43d6bb410VgnVCM100000171f5a0aRCRD&vgnextoid=91f11ebe1f5c9210VgnVCM2000000c205a0aRCRD";"PEDRO DE VALDIVIA";"CALLE";"V";"19";"";"H";"";"";"MADRID";"MADRID";"28006";"EL VISO";"CHAMARTIN";"441959";"4476747";"40.43934680317712";"-3.6843614486771425";"917 823 301";"915 615 304";"";"/contenido/entidadesYorganismos/OrganismosInternacionales/EmbajadasConsulados"; 
21156;"Consulado de San Marino";"";"";"";"Metro: Alonso Martínez (líneas 4, 5 y 10), Colón (línea 4).  Bus: 14, 150, 27, 45, 5.  Bicimad: Estación 104 (paseo de la Castellana, 4).";"";"3";"http://www.madrid.es/sites/v/index.jsp?vgnextchannel=bfa48ab43d6bb410VgnVCM100000171f5a0aRCRD&vgnextoid=c8197d448b51c010VgnVCM2000000c205a0aRCRD";"CASTELLANA";"PASEO";"V";"13";"3";"";"";"";"MADRID";"MADRID";"28046";"ALMAGRO";"CHAMBERI";"441447";"4475484";"40.42793321049834";"-3.690281666974233";"913 193 562";"";"";"/contenido/entidadesYorganismos/OrganismosInternacionales/EmbajadasConsulados"; 
169940;"Consulado de Senegal";"";"";"";"Metro: Esperanza (línea 4).  Bus: 120, 122.";"";"3";"http://www.madrid.es/sites/v/index.jsp?vgnextchannel=bfa48ab43d6bb410VgnVCM100000171f5a0aRCRD&vgnextoid=2547085f5181c010VgnVCM1000000b205a0aRCRD";"PALERMO";"CALLE";"V";"13";"";"";"";"";"MADRID";"MADRID";"28043";"CANILLAS";"HORTALEZA";"444908";"4479134";"40.459169743269854";"-3.6510665185268176";"913 095 200";"";"consulsene.madrid@gmail.com";"/contenido/entidadesYorganismos/OrganismosInternacionales/EmbajadasConsulados"; 
47055;"Consulado de Seychelles";"";"";"";"Metro: Avenida de América (líneas 4, 6, 7 y 9).  Bus: 12, 19, 51, 9, 16, 29, 52.  Bicimad: Estación 140 (calle Velázquez, 130).";"";"3";"http://www.madrid.es/sites/v/index.jsp?vgnextchannel=bfa48ab43d6bb410VgnVCM100000171f5a0aRCRD&vgnextoid=71f97589f451c010VgnVCM1000000b205a0aRCRD";"NUÑEZ DE BALBOA";"CALLE";"V";"120";"";"";"";"";"MADRID";"MADRID";"28006";"EL VISO";"CHAMARTIN";"442192";"4476627";"40.43828714181301";"-3.681593093967624";"913 101 907";"913 195 189";"";"/contenido/entidadesYorganismos/OrganismosInternacionales/EmbajadasConsulados"; 
7053646;"Consulado de Sierra Leona";"";"";"";"Metro: Ibiza (línea 9), Sainz de Baranda (líneas 6 y 9).  Bus: 2, 15, 215, 26, 61, 63, C2.  Bicimad: Estaciones 71 (calle Doce de Octubre, 28), 181 (calle Ibiza, 18).";"";"3";"http://www.madrid.es/sites/v/index.jsp?vgnextchannel=bfa48ab43d6bb410VgnVCM100000171f5a0aRCRD&vgnextoid=8fc541890df00410VgnVCM2000000c205a0aRCRD";"IBIZA";"CALLE";"V";"38";"7";"A";"";"";"MADRID";"MADRID";"28009";"IBIZA";"RETIRO";"442819";"4474372";"40.4180111765594";"-3.674008230633587";"637 310 810";"";"adc@consuladosierraleonamadrid.es";"/contenido/entidadesYorganismos/OrganismosInternacionales/EmbajadasConsulados"; 
169957;"Consulado de Uruguay";"";"";"";"Metro: Arg&amp;uuml;elles (líneas 3, 4, 6), Ventura Rodríguez (línea 3)  Bus: 62, 74.  Bicimad: Estación 113 (paseo Pintor Rosales, 38).  Aparcamiento: Marqués de Urquijo (63), entre calle Prinicesa y Juan Álvarez Mendiz.";"";"3";"http://www.madrid.es/sites/v/index.jsp?vgnextchannel=bfa48ab43d6bb410VgnVCM100000171f5a0aRCRD&vgnextoid=b757085f5181c010VgnVCM1000000b205a0aRCRD";"PINTOR ROSALES";"PASEO";"V";"32";"8";"";"";"";"MADRID";"MADRID";"28008";"ARGUELLES";"MONCLOA-ARAVACA";"438937";"4475436";"40.42732035257515";"-3.7198652917862693";"915 482 282 / 915 412 402";"917 581 061";"cgmadrid@mrree.gub.uy";"/contenido/entidadesYorganismos/OrganismosInternacionales/EmbajadasConsulados"; 
11077598;"Consulado de Uzbekistán";"";"";"";"";"";"3";"http://www.madrid.es/sites/v/index.jsp?vgnextchannel=bfa48ab43d6bb410VgnVCM100000171f5a0aRCRD&vgnextoid=bd380939cf6be610VgnVCM1000001d4a900aRCRD";"RINCONADA";"PASEO";"V";"13";"";"";"";"";"MADRID";"MADRID";"28023";"ARAVACA";"MONCLOA-ARAVACA";"435374";"4478704";"40.45649311653234";"-3.762194875331058";"913 078 191";"";"";"/contenido/entidadesYorganismos/OrganismosInternacionales/EmbajadasConsulados"; 
6443765;"Consulado de Venezuela";"";"";"";"Metro: Plaza de Castilla (líneas 1, 9 y 10), Duque de Pastrana (línea 9).  Bus: 150.  Bicimad: Estación 255 (calle General López Pozas, 2).";"";"3";"http://www.madrid.es/sites/v/index.jsp?vgnextchannel=bfa48ab43d6bb410VgnVCM100000171f5a0aRCRD&vgnextoid=031aa95c6f977310VgnVCM1000000b205a0aRCRD";"APOLONIO MORALES";"CALLE";"V";"3";"";"";"";"";"MADRID";"MADRID";"28036";"NUEVA ESPAÑA";"CHAMARTIN";"441998";"4479425";"40.4634741663274";"-3.6841462506645555";"913 532 991";"911 730 470";"";"/contenido/entidadesYorganismos/OrganismosInternacionales/EmbajadasConsulados"; 
4638299;"Embajada de Afganistan";"";"";"";"Bus: 133.";"";"3";"http://www.madrid.es/sites/v/index.jsp?vgnextchannel=bfa48ab43d6bb410VgnVCM100000171f5a0aRCRD&vgnextoid=e6e795cbb83f4110VgnVCM1000000b205a0aRCRD";"MORALZARZAL";"CALLE";"V";"44";"";"";"";"";"MADRID";"MADRID";"28034";"MIRASIERRA";"FUENCARRAL-EL PARDO";"440135";"4482448";"40.49067";"-3.70641";"917 218 581";"917 216 832";"madrid@mfa.af";"/contenido/entidadesYorganismos/OrganismosInternacionales/EmbajadasConsulados"; 
17845;"Embajada de Albania";"";"";"";"Metro: Serrano (línea 4).  Bus: 1, 19, 51, 74, 9.  Bicimad: Estación 87 (Calle Ayala 44).  Aparcamiento: Velázquez Ayala (42), calle Velázquez y Calle Ayala.";"Otros correos electrónicos de interés:    cancilleria@albania.e.telefonica.net   secretaria@albania.e.telefonica.net";"3";"http://www.madrid.es/sites/v/index.jsp?vgnextchannel=bfa48ab43d6bb410VgnVCM100000171f5a0aRCRD&vgnextoid=a68c7d448b51c010VgnVCM2000000c205a0aRCRD";"LAGASCA";"CALLE";"V";"68";"1";"D";"";"";"MADRID";"MADRID";"28001";"RECOLETOS";"SALAMANCA";"441898";"4475482";"40.42794681518573";"-3.684965004278467";"915 626 985 / 915 612 118";"915 613 775";"embassy.madrid@mfa.gov.al";"/contenido/entidadesYorganismos/OrganismosInternacionales/EmbajadasConsulados"; 
7955;"Embajada de Alemania";"";"";"";"Metro: Rubén Darío (línea 5), Colón (línea 4), Alonso Martínez (líneas 4, 5 y 10).  Bus: 14, 150, 27, 45, 5, 7.  Aparcamiento: Almagro (12) calle Almagro, 11.";"";"3";"http://www.madrid.es/sites/v/index.jsp?vgnextchannel=bfa48ab43d6bb410VgnVCM100000171f5a0aRCRD&vgnextoid=f08ef3216571c010VgnVCM1000000b205a0aRCRD";"FORTUNY";"CALLE";"V";"8";"";"";"";"";"MADRID";"MADRID";"28010";"ALMAGRO";"CHAMBERI";"441404";"4475708";"40.429948081680884";"-3.6908092066734293";"915 579 000";"913 102 104";"Zreg@MADRI.Auswaertiges-Amt.de";"/contenido/entidadesYorganismos/OrganismosInternacionales/EmbajadasConsulados"; 
27401;"Embajada de Andorra";"";"";"";"Metro: Retiro (línea 2).  Renfe: Recoletos (líneas C1, C2, C7, C10).  Bus: 28, 1, 146, 15, 19, 2, 20, 51, 52, 74, 9.  Bicimad: Estaciones 60 (Plaza de la Independencia 6) y 107 (calle Serrano, 8).  Aparcamiento: Serrano III (40) calle Serrano entre Jorge Juan y plaza Independencia.";"";"3";"http://www.madrid.es/sites/v/index.jsp?vgnextchannel=bfa48ab43d6bb410VgnVCM100000171f5a0aRCRD&vgnextoid=679d059cb751c010VgnVCM2000000c205a0aRCRD";"ALCALA";"CALLE";"V";"73";"";"";"";"";"MADRID";"MADRID";"28009";"RECOLETOS";"SALAMANCA";"441686";"4474654";"40.420463942385524";"-3.6873880759267004";"914 317 453";"915 776 341";"";"/contenido/entidadesYorganismos/OrganismosInternacionales/EmbajadasConsulados"; 
7853;"Embajada de Angola";"";"";"";"Metro: Núñez de Balboa (líneas 5 y 9).  Bus: 1, 19, 51, 74, 9.  Bicimad: Estación 103 (calle de Ortega y Gasset, 4), 88 (calle Velázquez, 75).  Aparcamientos: Calle Velázquez y Juan Bravo (58), calle Velázquez y calle Ayala (42).";"";"3";"http://www.madrid.es/sites/v/index.jsp?vgnextchannel=bfa48ab43d6bb410VgnVCM100000171f5a0aRCRD&vgnextoid=7af493e5fd61c010VgnVCM1000000b205a0aRCRD";"LAGASCA";"CALLE";"V";"88";"2";"";"";"";"MADRID";"MADRID";"28001";"CASTELLANA";"SALAMANCA";"441918";"4475700";"40.42991206232817";"-3.6847491581278606";"914 356 166";"915 779 010";"gabembajador@embajadadeangola.com";"/contenido/entidadesYorganismos/OrganismosInternacionales/EmbajadasConsulados"; 
11518391;"Embajada de Antigua y Barbuda";"";"";"";"Metro: Banco de España (línea 2).  Bus: 1001, 10, 14, 27, 34, 37, 45, C03, .   Bicimad :   Estaciones 65 (calle Antonio Maura, 15), 68 (calle Espalter, 1).    Aparcamiento: Montalbán (49), calle Montalbán entre calle Alfonso XI y Paseo del Prado).";"";"3";"http://www.madrid.es/sites/v/index.jsp?vgnextchannel=bfa48ab43d6bb410VgnVCM100000171f5a0aRCRD&vgnextoid=1b223d6b80e0d710VgnVCM1000001d4a900aRCRD";"FELIPE IV";"CALLE";"V";"7";"4";"B";"";"";"MADRID";"MADRID";"28014";"LOS JERONIMOS";"RETIRO";"441355";"4474089";"40.41536771561358";"-3.6912279554199525";"";"";"info@embassy.ag";"/contenido/entidadesYorganismos/OrganismosInternacionales/EmbajadasConsulados"; 
7854;"Embajada de Arabia Saudí";"";"";"";"Bus: 107, 29, 7, 70.";"";"3";"http://www.madrid.es/sites/v/index.jsp?vgnextchannel=bfa48ab43d6bb410VgnVCM100000171f5a0aRCRD&vgnextoid=0d0593e5fd61c010VgnVCM1000000b205a0aRCRD";"DOCTOR ALVAREZ SIERRA";"CALLE";"V";"3";"";"";"";"";"MADRID";"MADRID";"28033";"COSTILLARES";"CIUDAD LINEAL";"443449";"4479881";"40.467682054006126";"-3.6670731436438135";"913 834 300 / 913 832 229";"913 021 145 / 917 667 338 (Sección Consular)";"info@arabiasaudi.org";"/contenido/entidadesYorganismos/OrganismosInternacionales/EmbajadasConsulados"; 
7855;"Embajada de Argelia";"";"";"";"Metro: Núñez de Balboa (líneas 5, 9), Gregorio Marañon (líneas 7 y 10).  Bus: 16, 19, 51, 9, 61.  Bicimad: Estaciónes 190 (Velázquez, 91) y 141 (Paseo de la Castellana, 43).  Aparcamiento: Serrano I (62), calle Serrano entre Hermanos Becquer y Marés de Villamejor.";"";"3";"http://www.madrid.es/sites/v/index.jsp?vgnextchannel=bfa48ab43d6bb410VgnVCM100000171f5a0aRCRD&vgnextoid=9f1593e5fd61c010VgnVCM1000000b205a0aRCRD";"GENERAL ORAA";"CALLE";"V";"12";"";"";"";"";"MADRID";"MADRID";"28006";"CASTELLANA";"SALAMANCA";"441827";"4476399";"40.43620263089244";"-3.685885895310761";"915 629 877";"";"embargel@tsai.es";"/contenido/entidadesYorganismos/OrganismosInternacionales/EmbajadasConsulados"; 
7856;"Embajada de Argentina";"";"";"";"Metro: Alonso Martínez  (Líneas 4, 5 y 10).  Bus: 7, 21, C03, 37, 3, 14, 150, 27, 45, 5.  Bicimad: Estación 8 (Plaza Alonso Martinez 5).  Aparcamiento: Calle Almagro, 11.";"";"3";"http://www.madrid.es/sites/v/index.jsp?vgnextchannel=bfa48ab43d6bb410VgnVCM100000171f5a0aRCRD&vgnextoid=223593e5fd61c010VgnVCM1000000b205a0aRCRD";"FERNANDO EL SANTO";"CALLE";"V";"15";"1";"";"";"";"MADRID";"MADRID";"28010";"ALMAGRO";"CHAMBERI";"441245";"4475517";"40.42822303456559";"-3.692664355978796";"917 710 500 / 917 710 519";"917 710 526";"eespa@mrecic.go";"/contenido/entidadesYorganismos/OrganismosInternacionales/EmbajadasConsulados"; 
6320109;"Embajada de Armenia";"";"";"";"Metro: Ópera (líneas 2, 5 y R).  Bus: 31, 50, 65.  Bicimad: Estación 166 (calle Segovia, 26).";"";"3";"http://www.madrid.es/sites/v/index.jsp?vgnextchannel=bfa48ab43d6bb410VgnVCM100000171f5a0aRCRD&vgnextoid=938a69858cb75310VgnVCM2000000c205a0aRCRD";"MAYOR";"CALLE";"V";"81";"";"";"";"Entrada derecha";"MADRID";"MADRID";"28013";"PALACIO";"CENTRO";"439435";"4474058";"40.41494312060603";"-3.7138636213185077";"915 422 627";"915 591 806";"armspainembassy@mfa.am, consul@armspain.es";"/contenido/entidadesYorganismos/OrganismosInternacionales/EmbajadasConsulados"; 
7857;"Embajada de Australia";"";"";"";"Metro: Begoña (línea 10), Chamartín (líneas 1 y 10).  Bus: 124, 134, 135, 173, 175, 176, 178, 67, 147, 174, 66.  Cercanías Renfe: Chamartín (líneas C1, C2, C3, C4, C7, C8, C10 y Regional).  Bicimad: Estación 248 (torre Cepsa Sinesio Delgado).";"";"3";"http://www.madrid.es/sites/v/index.jsp?vgnextchannel=bfa48ab43d6bb410VgnVCM100000171f5a0aRCRD&vgnextoid=b44593e5fd61c010VgnVCM1000000b205a0aRCRD";"CASTELLANA";"PASEO";"V";"259";"24";"";"D";"Torre Espacio";"MADRID";"MADRID";"28046";"LA PAZ";"FUENCARRAL-EL PARDO";"441744";"4480809";"40.47592404926307";"-3.6872691224974417";"913 536 600 / Asuntos Consulares: 913 536 690 / Asuntos Comerciales: 913 536 676";"913 536 692 / Asuntos Comerciales: 914 423 885";"";"/contenido/entidadesYorganismos/OrganismosInternacionales/EmbajadasConsulados"; 
7858;"Embajada de Austria";"";"";"";"Metro: Santiago Bernabeu (línea 10), Nuevos Ministerios (líneas 6, 8 y 10).  Bus: 126, 14, 147, 150, 27, 40, 120, 43.  Cercanías RENFE: Nuevos Ministerios (líneas C1, C2, C3, C4, C7, C10 y Regional).  Bicimad: Estaciones 150 (paseo de la Castellana, 122) y 153 (avenida del General Perón, 36), 149 (paseo de la Habana, 42).  Aparcamiento: Orense (22) avenida General Perón, 27.";"Asuntos Comerciales:   Calle Orense, 11 6.&amp;ordf;. Teléfono: 915 564 358. Fax: 915 569 991. Correo electrónico: madrid@advantageaustria.org.";"3";"http://www.madrid.es/sites/v/index.jsp?vgnextchannel=bfa48ab43d6bb410VgnVCM100000171f5a0aRCRD&vgnextoid=475593e5fd61c010VgnVCM1000000b205a0aRCRD";"CASTELLANA";"PASEO";"V";"91";"9";"";"";"";"MADRID";"MADRID";"28046";"CUATRO CAMINOS";"TETUAN";"448099";"4471549";"40.45055668619461";"-3.691480118133545";"915 565 315";"915 973 579";"madrid-ob@bmeia.gv.at";"/contenido/entidadesYorganismos/OrganismosInternacionales/EmbajadasConsulados"; 
4638218;"Embajada de Azerbaiyán";"";"";"";"Metro: Serrano (línea 4), Velázquez (línea 4).  Bus: 1, 19, 51, 74, 9, 21, 53.  Bicimad: Estación 87 (cale Ayala, 44).  Aparcamiento: Velázquez Ayala (42) calle Velázquez y calle Ayala.";"";"3";"http://www.madrid.es/sites/v/index.jsp?vgnextchannel=bfa48ab43d6bb410VgnVCM100000171f5a0aRCRD&vgnextoid=a6668422183f4110VgnVCM1000000b205a0aRCRD";"VELAZQUEZ";"CALLE";"V";"43";"1";"derecha";"";"";"MADRID";"MADRID";"28001";"RECOLETOS";"SALAMANCA";"441963";"4475365";"40.42690514525314";"-3.6841849910219326";"917 596 010 / 917 489 776 (Sección Consular)";"917 597 056";"madrid@mission.mfa.gov.az";"/contenido/entidadesYorganismos/OrganismosInternacionales/EmbajadasConsulados"; 
33197;"Embajada de Bangladesh";"";"";"";"Metro: Arturo Soria (línea 4).  Bus: 120, 122, 11, 70.";"";"3";"http://www.madrid.es/sites/v/index.jsp?vgnextchannel=bfa48ab43d6bb410VgnVCM100000171f5a0aRCRD&vgnextoid=f9ad059cb751c010VgnVCM2000000c205a0aRCRD";"MANUEL MARAÑÓN";"CALLE";"V";"13";"";"";"";"";"MADRID";"MADRID";"28043";"COLINA";"CIUDAD LINEAL";"444398";"4478723";"40.45731428368615";"-3.65577802621038";"914 019 932 / 914 023 085";"914 029 564";"mission.madrid@mofa.gov.bd";"/contenido/entidadesYorganismos/OrganismosInternacionales/EmbajadasConsulados"; 
61821;"Embajada de Belarus";"";"";"";"Metro: Pinar de Chamartín (líneas 1, 4 y ML1).  Bus: 125, 129, 150.  Cercanías Renfe: Fuente de la Mora (líneas C1, C10 y Regional).";"";"3";"http://www.madrid.es/sites/v/index.jsp?vgnextchannel=bfa48ab43d6bb410VgnVCM100000171f5a0aRCRD&vgnextoid=53ac8ed67151c010VgnVCM2000000c205a0aRCRD";"CALERUEGA";"CALLE";"V";"81";"2";"A";"";"";"MADRID";"MADRID";"28033";"COSTILLARES";"CIUDAD LINEAL";"443375";"4481617";"40.48331995261287";"-3.668097020513215";"917 128 323";"";"spain@mfa.gov.by";"/contenido/entidadesYorganismos/OrganismosInternacionales/EmbajadasConsulados"; 
7860;"Embajada de Bolivia";"";"";"";"Bus: 82.";"";"3";"http://www.madrid.es/sites/v/index.jsp?vgnextchannel=bfa48ab43d6bb410VgnVCM100000171f5a0aRCRD&vgnextoid=6c7593e5fd61c010VgnVCM1000000b205a0aRCRD";"GUISANDO";"CALLE";"V";"27";"";"";"";"";"MADRID";"MADRID";"28035";"CIUDAD UNIVERSITARIA";"MONCLOA-ARAVACA";"437955";"4480417";"40.472122704189225";"-3.731927690209909";"915 780 835";"915 773 946";"embolivia-madrid@rree.gov.bo";"/contenido/entidadesYorganismos/OrganismosInternacionales/EmbajadasConsulados"; 
7967;"Embajada de Bosnia y Herzegovina";"";"";"";"Metro: Retiro (línea 2), Serrano (línea 4).  Bus: 1, 19, 51, 74, 9.  Cercanías Renfe: Recoletos (C1, C2, C7, C10 y Regional).  Bicimad: Estaciones 95 (calle Claudio Coello 19), 102 (calle Alcalá, 95).";"";"3";"http://www.madrid.es/sites/v/index.jsp?vgnextchannel=bfa48ab43d6bb410VgnVCM100000171f5a0aRCRD&vgnextoid=839ef3216571c010VgnVCM1000000b205a0aRCRD";"LAGASCA";"CALLE";"V";"20";"2";"Izquierda";"";"";"MADRID";"MADRID";"28001";"RECOLETOS";"SALAMANCA";"441838";"4474850";"40.42224925491233";"-3.6856144842883563";"915 750 870";"914 355 056";"info@embajadabh.es";"/contenido/entidadesYorganismos/OrganismosInternacionales/EmbajadasConsulados"; 
7861;"Embajada de Brasil";"";"";"";"Metro: Alonso Martínez (líneas 4, 5 y 10).  Bus: 7, 21, C03, 3, 37.  Bicimad: Estación 8 (plaza de Alonso Martinez 5).  Aparcamientos: Almagro (12) calle Almagro, 11; Villa de Paríz (67) plaza Villa de París.";"Asuntos Comerciales, Económicos y Energía:   Dirección: Calle Almagro 28, 6.&amp;ordm;, 28010, Madrid Teléfono: 917 020 635 / 917 020 654 Fax: 913 101 838 Email: economico.madrid@itamaraty.gov.br.    Asuntos culturales, prensa y divulgación:   Dirección: Calle Almagro 28, 6.&amp;ordm;, 28010, Madrid Teléfono: 913 198 970 / 913 199 671. Email: c ultural.madrid@itamaraty.gov.br; prensa.madrid@itamaraty.gov.br.";"3";"http://www.madrid.es/sites/v/index.jsp?vgnextchannel=bfa48ab43d6bb410VgnVCM100000171f5a0aRCRD&vgnextoid=fe8593e5fd61c010VgnVCM1000000b205a0aRCRD";"FERNANDO EL SANTO";"CALLE";"V";"6";"";"";"";"";"MADRID";"MADRID";"28010";"ALMAGRO";"CHAMBERI";"441099";"4475509";"40.42813385533694";"-3.6943862723970384";"917 004 650";"917 004 660";"brasemb.madrid@itamaraty.gov.br";"/contenido/entidadesYorganismos/OrganismosInternacionales/EmbajadasConsulados"; 
7862;"Embajada de Bulgaria";"";"";"";"Metro: Pío XII (línea 9).  Bus: 52.";"";"3";"http://www.madrid.es/sites/v/index.jsp?vgnextchannel=bfa48ab43d6bb410VgnVCM100000171f5a0aRCRD&vgnextoid=81a593e5fd61c010VgnVCM1000000b205a0aRCRD";"SANTA MARIA MAGDALENA";"TRAVESIA";"V";"15";"";"";"";"";"MADRID";"MADRID";"28016";"NUEVA ESPAÑA";"CHAMARTIN";"443138";"4479269";"40.46214764815634";"-3.6706866071808317";"913 455 761 / 913 597 611 / 913 456 651";"913 591 201";"Embassy.Madrid@mfa.bg";"/contenido/entidadesYorganismos/OrganismosInternacionales/EmbajadasConsulados"; 
7859;"Embajada de Bélgica";"";"";"";"Metro: Colón (línea 4), Rubén Darío (línea 5).  Bus: 14, 150, 27, 45, 5, 1, 19, 51, 74, 9.  Bicimad: Estaciones 103 (calle José Ortega y Gasset, 4), 104 (paseo de la Castellana, 4), 105 (calle Serrano, 54).  Aparcamiento: Serrano II (39), calle Serrano entre Ortega y Gasset y Hermosilla.";"";"3";"http://www.madrid.es/sites/v/index.jsp?vgnextchannel=bfa48ab43d6bb410VgnVCM100000171f5a0aRCRD&vgnextoid=d96593e5fd61c010VgnVCM1000000b205a0aRCRD";"CASTELLANA";"PASEO";"V";"18";"6";"";"";"";"MADRID";"MADRID";"28046";"RECOLETOS";"SALAMANCA";"441556";"4475560";"40.428625519984514";"-3.6890037404933405";"915 776 300";"914 318 166";"madrid@diplobel.fed.be";"/contenido/entidadesYorganismos/OrganismosInternacionales/EmbajadasConsulados"; 
5760255;"Embajada de Cabo Verde";"";"";"";"Metro: Avenida de América (líneas 4, 6, 7 y 9).  Bus: 29, 52, 12, 72, 73, C1.  Bicimad: Estación 194 (Francisco Silvela, 86).";"";"3";"http://www.madrid.es/sites/v/index.jsp?vgnextchannel=bfa48ab43d6bb410VgnVCM100000171f5a0aRCRD&vgnextoid=7fd6c5b589bc9210VgnVCM1000000b205a0aRCRD";"PRINCIPE DE VERGARA";"CALLE";"V";"93";"1";"A-B";"";"";"MADRID";"MADRID";"28006";"CASTELLANA";"SALAMANCA";"442378";"4476452";"40.43671844016731";"-3.679394598170634";"915 702 568";"915 702 563";"emb.cavoverde@netcabo.pt";"/contenido/entidadesYorganismos/OrganismosInternacionales/EmbajadasConsulados"; 
7863;"Embajada de Camerún";"";"";"";"Metro: Valdeacederas (línea 1), Cuzco (línea 10), Plaza de Castilla (líneas 1, 9 y 10).  Bus: 149, 147, 27, 5.  Bicimad: Estaciones 156 (calle Sor Ángela de la Cruz, 2) y 157 (paseo de la Castellana, 164).";"";"3";"http://www.madrid.es/sites/v/index.jsp?vgnextchannel=bfa48ab43d6bb410VgnVCM100000171f5a0aRCRD&vgnextoid=14b593e5fd61c010VgnVCM1000000b205a0aRCRD";"ROSARIO PINO";"CALLE";"V";"3";"";"";"";"";"MADRID";"MADRID";"28020";"CASTILLEJOS";"TETUAN";"441413";"4479259";"40.46193772299665";"-3.691030654751275";"915 711 160";"915 712 504";"ambacammadrid@telefonica.net";"/contenido/entidadesYorganismos/OrganismosInternacionales/EmbajadasConsulados"; 
7864;"Embajada de Canadá";"";"";"";"Metro: Begoña (línea 10), Chamartín (líneas 1 y 10).  Bus: 124, 134, 135, 173, 175, 176, 178, 67, 147, 174, 66.  Cercanías Renfe: Chamartín (líneas C1, C2, C3, C4, C7, C8, C10 y Regional).  Bicimad: Estación 248 (Torre Cepsa, Sinesio Delgado, 2).";"";"3";"http://www.madrid.es/sites/v/index.jsp?vgnextchannel=bfa48ab43d6bb410VgnVCM100000171f5a0aRCRD&vgnextoid=a6c593e5fd61c010VgnVCM1000000b205a0aRCRD";"CASTELLANA";"PASEO";"V";"259";"";"";"";"D (Torre Espacio)";"MADRID";"MADRID";"28046";"LA PAZ";"FUENCARRAL-EL PARDO";"441820";"4481162";"40.47910934549671";"-3.68640496729094";"913 828 400";"913 828 490";"MDRIDG@international.gc.ca";"/contenido/entidadesYorganismos/OrganismosInternacionales/EmbajadasConsulados"; 
7871;"Embajada de Chile";"";"";"";"Metro: Núñez de Balboa (líneas 5 y 9), Serrano (línea 4).  Bus: 1, 19, 51, 74, 9.  Bicimad: Estaciones 88 (Calle Velázquez 75) y 103 (calle Ortega y Gasset, 4).  Aparcamiento: Velázquez Juan Bravo (58) calle Velázquez y calle Juan Bravo; Velázquez Ayala (42) calle Velázquez y calle Ayala.";"Agregaduría Comercial:   Dirección: Calle Velázquez, 80 1.&amp;ordm; izquierda. Teléfono: 914 357 834. Fax: 914 350 413. Correo: prochilespain@prochile.gob.cl.";"3";"http://www.madrid.es/sites/v/index.jsp?vgnextchannel=bfa48ab43d6bb410VgnVCM100000171f5a0aRCRD&vgnextoid=16aef3216571c010VgnVCM1000000b205a0aRCRD";"LAGASCA";"CALLE";"V";"88";"6";"Derecha";"";"";"MADRID";"MADRID";"28001";"CASTELLANA";"SALAMANCA";"441918";"4475700";"40.42991199250328";"-3.6847609466814806";"914 319 160";"915 775 560";"echile.espana@minrel.gov.cll";"/contenido/entidadesYorganismos/OrganismosInternacionales/EmbajadasConsulados"; 
7872;"Embajada de China";"";"";"";"Metro: Arturo Soria (línea 4).  Bus: 11, 122, 70.";"Cancillería:   Dirección: Calle Artura Soria 111-113. Teléfono: 915 194 242 / 915 193 672. Fax: 915 192 035. Email: chinaemb_es@mfa.gov.cn.   Sección Consular:  Dirección: Calle Josefa Valcárcel 40, 1&amp;ordm;, 28027, Madrid. Teléfono: 917 413 138 (pasaportes) / 917 414 728. Fax: 917 414 793. Email: consuladochino@vip.163.com (general) / madridcentervisaforchina@gmail.com (visados).   Oficina de Prensa:  Teléfono: 915 194 242. Fax: 915 192 035.   Asuntos Comerciales :   Dirección: Avenida de Ahones, 1, 28043, Madrid. Teléfono: 917 161 741 / 912 342 288. Fax: 915 194 675. Email: es@mofcom.gov.cn. Página web: http://es.mofcom.gov.cn.   Asuntos Culturales   Dirección: Calle Arturo Soria, 65, 28027 Madrid. Teléfono: 913 000 941. Fax: 913 001 081. Email: cienciachina@yahoo.com.   Asuntos de Educación   Dirección: Calle Arturo Soria 108 D, 28027, Madrid. Teléfono: 913 883 988 E-mail: xbyjy@moe.edu.cn.";"3";"http://www.madrid.es/sites/v/index.jsp?vgnextchannel=bfa48ab43d6bb410VgnVCM100000171f5a0aRCRD&vgnextoid=a8bef3216571c010VgnVCM1000000b205a0aRCRD";"ARTURO SORIA";"CALLE";"V";"111";"";"";"";"y 113";"MADRID";"MADRID";"28043";"SAN JUAN BAUTISTA";"CIUDAD LINEAL";"444622";"4478087";"40.45159983039448";"-3.6530808256748477";"Consultar información de contacto en la pestaña 'Más información'";"";"";"/contenido/entidadesYorganismos/OrganismosInternacionales/EmbajadasConsulados"; 
7963;"Embajada de Chipre";"";"";"";"Metro: Gregorio Marañón (líneas 7 y 10), Rubén Darío (línea 5).  Bus: 16, 5, 61, 147, 40, 7, 14, 150, 27, 45.  Bicimad: Estación 141 (paseo de la Castellana, 43).";"";"3";"http://www.madrid.es/sites/v/index.jsp?vgnextchannel=bfa48ab43d6bb410VgnVCM100000171f5a0aRCRD&vgnextoid=3bcef3216571c010VgnVCM1000000b205a0aRCRD";"CASTELLANA";"PASEO";"V";"45";"";"";"";"4-5";"MADRID";"MADRID";"28046";"ALMAGRO";"CHAMBERI";"441505";"4476346";"40.4357025961309";"-3.6896772816624206";"915 783 114 / 915 783 117 / 915 751 110";"915 782 189";"madridembassy@mfa.gov.cy";"/contenido/entidadesYorganismos/OrganismosInternacionales/EmbajadasConsulados"; 
7865;"Embajada de Colombia";"";"";"";"Metro: Rubén Darío (línea 5), Gregorio Marañón (líneas 7 y 10).  Bus: 16, 5, 61, 147, 40, 7, 14, 150, 27, 45.  Bicimad: Estación 141 (Paseo de la Castellana, 43).";"";"3";"http://www.madrid.es/sites/v/index.jsp?vgnextchannel=bfa48ab43d6bb410VgnVCM100000171f5a0aRCRD&vgnextoid=39d593e5fd61c010VgnVCM1000000b205a0aRCRD";"GENERAL MARTINEZ CAMPOS";"PASEO";"V";"48";"";"";"";"";"MADRID";"MADRID";"28010";"ALMAGRO";"CHAMBERI";"441477";"4476274";"40.435042937705084";"-3.6900124559407823";"917 004 770";"913 102 869";"emadrid@cancilleria.gov.co";"/contenido/entidadesYorganismos/OrganismosInternacionales/EmbajadasConsulados"; 
7645265;"Embajada de Congo";"";"";"";"Metro: Plaza de Castilla (línea 1, 9 y 10).  Bus: 147, 27, 5, 149.  Bicimad: Estación 209 (plaza de Castilla, 2).";"";"3";"http://www.madrid.es/sites/v/index.jsp?vgnextchannel=bfa48ab43d6bb410VgnVCM100000171f5a0aRCRD&vgnextoid=d148838209c98410VgnVCM2000000c205a0aRCRD";"DOCTOR FLEMING";"CALLE";"V";"45";"1";"F";"";"";"MADRID";"MADRID";"28036";"NUEVA ESPAÑA";"CHAMARTIN";"441680";"4479338";"40.46267526644442";"-3.687880936282099";"917 332 647";"913 231 575";"info@ambardemadrid.com";"/contenido/entidadesYorganismos/OrganismosInternacionales/EmbajadasConsulados"; 
7868;"Embajada de Costa Rica";"";"";"";"Metro: Alonso Cano (línea 7), Gregorio Marañón (líneas 7 y 10), Rios Rosas (línea 1), Nuevos Ministerios (líneas 6, 8 y 10).  Bus: 12, 45, 5.  Cercanías Renfe: Nuevos Ministerios (líneas C1, C2, C3, C4, C10 y Regional).  Bicimad: Estaciones 134 (calle María de Guzmán, 58) y 135 (plaza San Juan de la Cruz, 11).";"";"3";"http://www.madrid.es/sites/v/index.jsp?vgnextchannel=bfa48ab43d6bb410VgnVCM100000171f5a0aRCRD&vgnextoid=e20ff3216571c010VgnVCM1000000b205a0aRCRD";"RIOS ROSAS";"CALLE";"V";"54";"BAJA";"DERECHA";"";"";"MADRID";"MADRID";"28003";"RIOS ROSAS";"CHAMBERI";"441017";"4476999";"40.441550649362455";"-3.695491196074582";"913 459 622 / 913 459 521";"913 533 709";"embcr-es@rree.go.cr";"/contenido/entidadesYorganismos/OrganismosInternacionales/EmbajadasConsulados"; 
7867;"Embajada de Costa de Marfil";"";"";"";"Metro: República Argentina (línea 6), Nuevos Ministerios (líneas 6, 8 y 10).  Bus: 16, 19, 51, C1, C2, 7.  Cercanías Renfe: Nuevos Ministerios (líneas C1, C2, C3, C4, C7, C10 y Regional).  Bicimad: Estación 137 (plaza de la República Argentina, 6).";"";"3";"http://www.madrid.es/sites/v/index.jsp?vgnextchannel=bfa48ab43d6bb410VgnVCM100000171f5a0aRCRD&vgnextoid=50fef3216571c010VgnVCM1000000b205a0aRCRD";"SERRANO";"CALLE";"V";"154";"";"";"";"";"MADRID";"MADRID";"28006";"EL VISO";"CHAMARTIN";"441864";"4477305";"40.44436689148431";"-3.685532581089074";"915 626 916";"915 622 193";"info@espagne.diplomatie.gouv.ci";"/contenido/entidadesYorganismos/OrganismosInternacionales/EmbajadasConsulados"; 
17846;"Embajada de Croacia";"";"";"";"Metro: Rubén Darío (línea 5), Núñez de Balboa (líneas 5, 9).  Bus: 1, 74, 19, 51, 9.  Bicimad: Estación 103 (calle Ortega y Gasset 6).  Aparcamiento: Serrano II (39) calle Serrano entre Ortega y Gasset y Hermosilla; Velázquez Juan Bravo (58) calle Velázquez y calle Juan Bravo.";"";"3";"http://www.madrid.es/sites/v/index.jsp?vgnextchannel=bfa48ab43d6bb410VgnVCM100000171f5a0aRCRD&vgnextoid=399c7d448b51c010VgnVCM2000000c205a0aRCRD";"CLAUDIO COELLO";"CALLE";"V";"78";"";"";"";"2";"MADRID";"MADRID";"28001";"CASTELLANA";"SALAMANCA";"441847";"4475711";"40.43000619511413";"-3.685587151651725";"915 776 881";"915 776 905";"croemb.madrid@mvep.hr";"/contenido/entidadesYorganismos/OrganismosInternacionales/EmbajadasConsulados"; 
7869;"Embajada de Cuba";"";"";"";"Metro: Pío XII (línea 9).  Bus: 14, 150.";"";"3";"http://www.madrid.es/sites/v/index.jsp?vgnextchannel=bfa48ab43d6bb410VgnVCM100000171f5a0aRCRD&vgnextoid=751ff3216571c010VgnVCM1000000b205a0aRCRD";"LA HABANA";"PASEO";"V";"194";"";"";"";"";"MADRID";"MADRID";"28036";"NUEVA ESPAÑA";"CHAMARTIN";"442323";"4479260";"40.46201039787292";"-3.680298066003204";"913 592 500";"913 596 145";"secreembajada@ecubamad.com";"/contenido/entidadesYorganismos/OrganismosInternacionales/EmbajadasConsulados"; 
7873;"Embajada de Dinamarca";"";"";"";"Metro: Serrano (línea 4).  Bus: 21, 53, 1, 19, 51, 74, 9.  Cercanías Renfe: Recoletos (líneas C1, C2, C7, C10 y Regional).  Bicimad: Estación 106 a y b (calle Serrano, 34).  Aparcamiento: Colón (2) plaza de Colón.";"";"3";"http://www.madrid.es/sites/v/index.jsp?vgnextchannel=bfa48ab43d6bb410VgnVCM100000171f5a0aRCRD&vgnextoid=082ff3216571c010VgnVCM1000000b205a0aRCRD";"SERRANO";"CALLE";"V";"26";"7";"";"";"";"MADRID";"MADRID";"28001";"RECOLETOS";"SALAMANCA";"441648";"4475067";"40.42419079459679";"-3.6878739673021554";"914 318 445";"914 319 168";"madamb@um.dk";"/contenido/entidadesYorganismos/OrganismosInternacionales/EmbajadasConsulados"; 
77715;"Embajada de Ecuador";"";"";"";"Metro: Núñez de Balboa (líneas 5 y 9), Avenida de América (líneas 4, 6, 7, 9).  Bus: 61, 19, 51, 9, 12.  Bicimad: Estación 190 (Velázquez, 91).";"";"3";"http://www.madrid.es/sites/v/index.jsp?vgnextchannel=bfa48ab43d6bb410VgnVCM100000171f5a0aRCRD&vgnextoid=2dad8ed67151c010VgnVCM2000000c205a0aRCRD";"VELAZQUEZ";"CALLE";"V";"114";"2";"Derecha";"";"";"MADRID";"MADRID";"28006";"CASTELLANA";"SALAMANCA";"442066";"4476352";"40.435795915806075";"-3.683063883088262";"915 627 215 / 915 627 216";"917 450 244";"embajadaecuador@mecuador.es";"/contenido/entidadesYorganismos/OrganismosInternacionales/EmbajadasConsulados"; 
7875;"Embajada de Egipto";"";"";"";"Metro: Núñez de Balboa (líneas 5, 9).  Bus: 1, 19, 51, 74, 9.  Bicimad: Estación 88 (Calle Velázquez 75).  Aparcamiento: calle Velázquez y Juan Bravo.";"Cancillería:   Dirección: calle Velázquez, 69. Teléfono: 915 776 308 / 915 776 309. Fax: 915 781 732. Telex: 42389-TALA-E.  embajadaegiptomadrid@gmail.com.    Asuntos Consulares:  Dirección: calle Velázquez 69, 28006, Madrid. Teléfono: 915 776 310. Fax: 915 781 732.  consuladoegiptomadrid@gmail.com.   Asuntos Comerciales:  Dirección: calle Velázquez 69 B, 28006, Madrid. Teléfono: 914 116 445. Fax: 914 116 146.  ecros@ecros.org / madrid@ecs.gov.eg.   Asuntos Culturales :   Dirección: calle Francisco de Asís Méndez Casariego 1, 28002, Madrid. Teléfono: 915 639 468. Fax: 915 638 640.  secretaria@institutoegipcio.com.    Asuntos de Prensa   Dirección: calle Velázquez 69, 28006, Madrid. Teléfono: 915  758 764.";"3";"http://www.madrid.es/sites/v/index.jsp?vgnextchannel=bfa48ab43d6bb410VgnVCM100000171f5a0aRCRD&vgnextoid=9a3ff3216571c010VgnVCM1000000b205a0aRCRD";"VELAZQUEZ";"CALLE";"V";"69";"";"";"";"";"MADRID";"MADRID";"28006";"CASTELLANA";"SALAMANCA";"441995";"4475803";"40.4308453094989";"-3.683850838409026";"Consultar teléfonos en la pestaña 'más información'.";"";"";"/contenido/entidadesYorganismos/OrganismosInternacionales/EmbajadasConsulados"; 
126924;"Embajada de El Salvador";"";"";"";"Metro: Cuzco (línea 10), Plaza de Castilla (líneas 1, 9 y 10).  Bus: 147, 27, 5, 11, 40.  Bicimad: Estación 157 (paseo de las Castellana, 164).";"";"3";"http://www.madrid.es/sites/v/index.jsp?vgnextchannel=bfa48ab43d6bb410VgnVCM100000171f5a0aRCRD&vgnextoid=83f38899fc81c010VgnVCM1000000b205a0aRCRD";"CASTELLANA";"PASEO";"V";"178";"1";"D";"";"";"MADRID";"MADRID";"28046";"NUEVA ESPAÑA";"CHAMARTIN";"441575";"4479134";"40.4608230762265";"-3.689108497357059";"917 607 846";"915 630 584";"embasalva@embasalva.com";"/contenido/entidadesYorganismos/OrganismosInternacionales/EmbajadasConsulados"; 
7877;"Embajada de Emiratos Árabes Unidos";"";"";"";"Bus: 11, 114, 115, 200, 21, 70.";"";"3";"http://www.madrid.es/sites/v/index.jsp?vgnextchannel=bfa48ab43d6bb410VgnVCM100000171f5a0aRCRD&vgnextoid=2d4ff3216571c010VgnVCM1000000b205a0aRCRD";"HERNANDEZ DE TEJADA";"CALLE";"V";"7";"";"";"";"";"MADRID";"MADRID";"28027";"SAN PASCUAL";"CIUDAD LINEAL";"444810";"4477611";"40.44732421323511";"-3.650834273921257";"915 701 001 / 915 701 002 / 915 701 003 / 915 701 004";"915 715 176";"madrid@mofa.gov.ae";"/contenido/entidadesYorganismos/OrganismosInternacionales/EmbajadasConsulados"; 
17848;"Embajada de Eslovaquia";"";"";"";"Metro: Gregorio Marañón (líneas 7 y 10), República Argentina (línea 6).  Bus: 16, 19, 51, 9, 12.  Bicimad: Estación 250 (calle Serrano, 113B).";"";"3";"http://www.madrid.es/sites/v/index.jsp?vgnextchannel=bfa48ab43d6bb410VgnVCM100000171f5a0aRCRD&vgnextoid=73ec7d448b51c010VgnVCM2000000c205a0aRCRD";"PINAR";"CALLE";"V";"20";"";"";"";"";"MADRID";"MADRID";"28006";"EL VISO";"CHAMARTIN";"441714";"4476725";"40.439131480262496";"-3.6872480288401794";"915 903 861 / 915 903 867 (asuntos consulares)";"915 903 868";"emb.madrid@mzv.sk";"/contenido/entidadesYorganismos/OrganismosInternacionales/EmbajadasConsulados"; 
17847;"Embajada de Eslovenia";"";"";"";"Metro: Gregorio Marañón (líneas 7 y 10), Rubén Darío (línea 5), Núñez de Balboa (líneas 5 y 9).  Bus: 16, 61, 14, 150, 27, 45, 147, 40, 7, 12, 19, 51, 9.  Bicimad: Estación 141 (Paseo de la Castellana 43).  Aparcamiento: Serrano I (62) calle Serrano entre Hermanos Becquer y Marqués de Villamejor.";"";"3";"http://www.madrid.es/sites/v/index.jsp?vgnextchannel=bfa48ab43d6bb410VgnVCM100000171f5a0aRCRD&vgnextoid=cbac7d448b51c010VgnVCM2000000c205a0aRCRD";"HERMANOS BECQUER";"CALLE";"V";"7";"2";"";"";"";"MADRID";"MADRID";"28006";"CASTELLANA";"SALAMANCA";"441649";"4476440";"40.43655950820698";"-3.687988217057569";"914 116 893";"915 646 057";"sloembassy.madrid@gov.si";"/contenido/entidadesYorganismos/OrganismosInternacionales/EmbajadasConsulados"; 
7878;"Embajada de Estados Unidos de América";"";"";"";"Metro: Rubén Darío (línea 5), Núñez de Balboa (líneas 5 y 9).  Autobus: 19, 51, 9, 61, 16, 14, 150, 27, 45, 5, 147, 40, 7.  Bicimad: Estaciones 142 (Paseo de la Castellana 42), 141 (paseo de la Castellana, 43).  Aparcamiento: Serrano I (62), calle Serrano entre Hermanos Bezquer y Marqués de Villamejor.";"";"3";"http://www.madrid.es/sites/v/index.jsp?vgnextchannel=bfa48ab43d6bb410VgnVCM100000171f5a0aRCRD&vgnextoid=bf5ff3216571c010VgnVCM1000000b205a0aRCRD";"SERRANO";"CALLE";"V";"75";"";"";"";"";"MADRID";"MADRID";"28006";"CASTELLANA";"SALAMANCA";"441751";"4476224";"40.43462082822759";"-3.686765868102311";"915 872 200";"915 872 303";"";"/contenido/entidadesYorganismos/OrganismosInternacionales/EmbajadasConsulados"; 
33574;"Embajada de Estonia";"";"";"";"Metro: Núñez de Balboa (líneas 5 y 9), Ruben Darío (línea 5).  Bus: 1, 74, 19, 51, 9.  Bicimad: Estación 103 (calle Ortega y Gasset, 4).  Aparcamientos: Velázquez con Juan Bravo (58) y Serrano II (39) calle Serrano entre Ortega y Gasset y Hermosilla.";"";"3";"http://www.madrid.es/sites/v/index.jsp?vgnextchannel=bfa48ab43d6bb410VgnVCM100000171f5a0aRCRD&vgnextoid=8cbd059cb751c010VgnVCM2000000c205a0aRCRD";"CLAUDIO COELLO";"CALLE";"V";"91";"1";"DERECHA";"";"";"MADRID";"MADRID";"28006";"CASTELLANA";"SALAMANCA";"441821";"4475787";"40.43068902185026";"-3.6859006104054375";"914 261 671";"914 261 672";"embassy.madrid@mfa.ee";"/contenido/entidadesYorganismos/OrganismosInternacionales/EmbajadasConsulados"; 
7879;"Embajada de Filipinas";"";"";"";"Metro: Nuevos Ministerios (líneas 6, 8 y 10), República Argentina (línea 6).  Bus: 7, C2, C1, 51.  Cercanías Renfe: Nuevos Ministerios (líneas C1, C2, C3, C4, C7, C10 y Regional).  Bicimad: Estación 137 (Plaza República Argentina 6).";"Asuntos Consulares:  Dirección: Calle Guadalquivir 6, 28002, Madrid. Teléfono: 917 823 830. Fax: 914 116 606. E-mail: madridpe@terra.es.  E-mail: madridpe@yahoo.com.   Oficina Laboral   Dirección: Calle Serrano 161 bajo, 28002, Madrid. Teléfono: 917 818 624. Fax: 917 818 626. E-mail: oficinalaboral@philembassymadrid.com. E-mail: polomadrid2020@gmail.com.";"3";"http://www.madrid.es/sites/v/index.jsp?vgnextchannel=bfa48ab43d6bb410VgnVCM100000171f5a0aRCRD&vgnextoid=427ff3216571c010VgnVCM1000000b205a0aRCRD";"ERESMA";"CALLE";"V";"2";"";"";"";"";"MADRID";"MADRID";"28002";"EL VISO";"CHAMARTIN";"441855";"4477564";"40.44669945349186";"-3.685662410274511";"917 823 830";"914 116 606";"madrid.pe@dfa.gov.ph";"/contenido/entidadesYorganismos/OrganismosInternacionales/EmbajadasConsulados"; 
7880;"Embajada de Finlandia";"";"";"";"Metro: Colón (línea 4), Alonso Martínez (líneas 4, 5 y 10).  Bus: 14, 150, 27, 45, 5.  Bicimad: Estación 104 (paseo de la Castellana, 4).  Aparcamiento: Serrano II (39), calle Serrano entre Ortega y Gasset y Hermosilla.";"Asuntos Comerciales:  Dirección: Paseo de la Castellana 18 7.&amp;ordf; planta, 28046, Madrid. Teléfono: 609 016 384. E-mail: s anomat.mad@formin.fi. Página web: www.businessfinland.fi.";"3";"http://www.madrid.es/sites/v/index.jsp?vgnextchannel=bfa48ab43d6bb410VgnVCM100000171f5a0aRCRD&vgnextoid=d48ff3216571c010VgnVCM1000000b205a0aRCRD";"CASTELLANA";"PASEO";"V";"15";"4";"";"";"";"MADRID";"MADRID";"28046";"ALMAGRO";"CHAMBERI";"441565";"4475711";"40.42811394313855";"-3.690189203244315";"913 196 172";"913 083 901";"sanomat.mad@formin.fi";"/contenido/entidadesYorganismos/OrganismosInternacionales/EmbajadasConsulados"; 
7881;"Embajada de Francia";"";"";"Edificio calle Salustiano Olózaga, 9:   Cancillería. Prensa.    Edificio calle Marqués de la Ensenada, 10:   Asuntos económicos. 918 377 830. Asuntos culturales. 917 007 700.";"Metro: Retiro (línea 2)..  Bus: 1, 146, 15, 2, 20, 51, 52, 74, 9, 28, 19, 14, 150, 27, 37, 45, 5, 53, C03.  Cercanías Renfe: Recoletos (líneas C1, C2, C7, C10 y Regional).  Bicimad: Estaciones 107 (calle Serrano, 8) y 60 (plaza de la Independencia, 6).  Aparcamiento: Serrano III (40) calle Serrano entre Jorge Juan y plaza Independencia.";"";"3";"http://www.madrid.es/sites/v/index.jsp?vgnextchannel=bfa48ab43d6bb410VgnVCM100000171f5a0aRCRD&vgnextoid=679ff3216571c010VgnVCM1000000b205a0aRCRD";"SALUSTIANO OLOZAGA";"CALLE";"V";"9";"";"";"";"";"MADRID";"MADRID";"28001";"RECOLETOS";"SALAMANCA";"441472";"4474663";"40.42053900269312";"-3.68991139140075";"914 238 900";"914 238 908";"";"/contenido/entidadesYorganismos/OrganismosInternacionales/EmbajadasConsulados"; 
7882;"Embajada de Gabón";"";"";"";"Metro: Valdeacederas (línea 1), Cuzco (línea 10).  Bus: 149.  Bicimad: Estación 156 (calle Sor Ángela de la Cruz, 2).  Aparcamiento: Jose Castán Tobeñas (30).";"";"3";"http://www.madrid.es/sites/v/index.jsp?vgnextchannel=bfa48ab43d6bb410VgnVCM100000171f5a0aRCRD&vgnextoid=f9aff3216571c010VgnVCM1000000b205a0aRCRD";"ORENSE";"CALLE";"V";"68";"2";"IZQUIERDA";"";"";"MADRID";"MADRID";"28020";"CASTILLEJOS";"TETUAN";"441179";"4479236";"40.461715298599664";"-3.693784947795898";"914 138 211 / 914 138 294";"914 131 153";"";"/contenido/entidadesYorganismos/OrganismosInternacionales/EmbajadasConsulados"; 
5761305;"Embajada de Gambia";"";"";"";"Metro: Ciudad Lineal (línea 5), Pueblo Nuevo (líneas 5 y 7).   Bus: 146, 48.";"";"3";"http://www.madrid.es/sites/v/index.jsp?vgnextchannel=bfa48ab43d6bb410VgnVCM100000171f5a0aRCRD&vgnextoid=a0555f848b0d9210VgnVCM2000000c205a0aRCRD";"HERNANDEZ IGLESIAS";"CALLE";"V";"20";"";"B";"";"";"MADRID";"MADRID";"28027";"CONCEPCION";"CIUDAD LINEAL";"445323";"4477005";"40.44189900508045";"-3.64472118306081";"914 361 792";"914 087 529";"info@gambiaembassy.es";"/contenido/entidadesYorganismos/OrganismosInternacionales/EmbajadasConsulados"; 
4643228;"Embajada de Georgia";"";"";"";"Metro: Sevilla (línea 2), Banco de España (línea 2), Antón Martín (línea 1).  Bus: 001, 10, 14, 27, 34, 37, 45, C03.  Bicimad: Estación 29 (calle Marqués de Cubas, 25).  Aparcamiento: Plaza de las Cortes (46).";"";"3";"http://www.madrid.es/sites/v/index.jsp?vgnextchannel=bfa48ab43d6bb410VgnVCM100000171f5a0aRCRD&vgnextoid=295a2744ef205110VgnVCM1000000b205a0aRCRD";"CORTES";"PLAZA";"V";"4";"5";"DERECHA";"";"";"MADRID";"MADRID";"28014";"CORTES";"CENTRO";"440990";"4474144";"40.41582948601852";"-3.6955563094397";"914 290 155 / 914 293 329";"914 296 883";"embassymadrid@mfa.gov.ge";"/contenido/entidadesYorganismos/OrganismosInternacionales/EmbajadasConsulados"; 
170176;"Embajada de Ghana";"";"";"";"Bus: 11, 114, 115, 200, 21, 70.";"";"3";"http://www.madrid.es/sites/v/index.jsp?vgnextchannel=bfa48ab43d6bb410VgnVCM100000171f5a0aRCRD&vgnextoid=37dae0e1f181c010VgnVCM1000000b205a0aRCRD";"HERNANDEZ DE TEJADA";"CALLE";"V";"10";"";"";"";"";"MADRID";"MADRID";"28027";"SAN PASCUAL";"CIUDAD LINEAL";"444822";"4477593";"40.447162324487145";"-3.6506769412919526";"915 670 390 / 915 670 440";"915 670 393";"";"/contenido/entidadesYorganismos/OrganismosInternacionales/EmbajadasConsulados"; 
7884;"Embajada de Grecia";"";"";"";"Metro: Cruz del Rayo (línea 9).  Bus: 16, 19, 51, 7, 29, 52.  Bicimad: Estación 147 (avenida del Doctor Arce, 45).  Aparcamiento: Museo de la Ciudad (51) calle Príncipe de Vergara, 152.";"Cancillería:   Teléfono: 915 644 653. Fax: 915 644 668. E-mail: gremb.mad@mfa.gr.     Asuntos Económicos y Comerciales :   Teléfono: 915 644 592. Fax: 915 645 932. E-mail: ecocom-madrid@mfa.gr.   Asuntos de Prensa:  Teléfono: 915 645 819 / 915 645 833. Fax: 915 644 669. E-mail: prensa@embagrec.org.   Asuntos Consulares:  Teléfono: 915 644 666 / 915 644 667. Fax: 915 644 697. E-mail: grcon.mad@mfa.gr.   Asuntos Administrativos:   Teléfono: 915 644 653. Fax: 915 644 668. E-mail: grinfo.mad@mfa.gr.";"3";"http://www.madrid.es/sites/v/index.jsp?vgnextchannel=bfa48ab43d6bb410VgnVCM100000171f5a0aRCRD&vgnextoid=8cbff3216571c010VgnVCM1000000b205a0aRCRD";"DOCTOR ARCE";"AVENIDA";"V";"24";"";"";"";"";"MADRID";"MADRID";"28002";"EL VISO";"CHAMARTIN";"442294";"4477627";"40.4472975753116";"-3.680491668946674";"Consultar datos de contacto en la pestaña 'Más información'.";"";"";"/contenido/entidadesYorganismos/OrganismosInternacionales/EmbajadasConsulados"; 
7914;"Embajada de Guatemala";"";"";"";"Metro: Nuñez de Balboa (líneas 5 y 9), Avenida de América (líneas 4, 6, 7 y 9).  Bus: 61, 19, 51, 9, 12.  Bicimad: Estación 190 (pcalle Velázquez, 91).";"";"3";"http://www.madrid.es/sites/v/index.jsp?vgnextchannel=bfa48ab43d6bb410VgnVCM100000171f5a0aRCRD&vgnextoid=1fcff3216571c010VgnVCM1000000b205a0aRCRD";"VELAZQUEZ";"CALLE";"V";"114";"1";"IZQUIERDA";"";"";"MADRID";"MADRID";"28006";"CASTELLANA";"SALAMANCA";"442066";"4476352";"40.43579499501083";"-3.6830553901663263";"913 440 347 / 913 441 417 / 699 999 463 (Emergencia)";"914 587 894";"informacion@embajadaguatemala.es embespana@minex.gob.gt";"/contenido/entidadesYorganismos/OrganismosInternacionales/EmbajadasConsulados"; 
5761374;"Embajada de Guinea";"";"";"";"Metro: Santiago Bernabeu (línea 10), Nuevos Ministerios (líneas 6, 8 y 10).  Bus: 14.  Cercanías Renfe: Nuevos Ministerios (líneas C1, C2, C3, C4, C7, C10 y Regional).  Bicimad: Estación 149 (paseo de la Habana, 42).";"";"3";"http://www.madrid.es/sites/v/index.jsp?vgnextchannel=bfa48ab43d6bb410VgnVCM100000171f5a0aRCRD&vgnextoid=6a2d90bbbe0d9210VgnVCM2000000c205a0aRCRD";"LUIS MURIEL";"CALLE";"V";"4";"";"";"";"";"MADRID";"MADRID";"28002";"EL VISO";"CHAMARTIN";"441640";"4477799";"40.448801374698455";"-3.6882191727598235";"914 352 928";"914 311 004";"ambaguimadrid@mae.gov.gn";"/contenido/entidadesYorganismos/OrganismosInternacionales/EmbajadasConsulados"; 
7885;"Embajada de Guinea Ecuatorial";"";"";"";"Metro: Pío XII (línea 9).  Bus: 150, 16, 29.";"";"3";"http://www.madrid.es/sites/v/index.jsp?vgnextchannel=bfa48ab43d6bb410VgnVCM100000171f5a0aRCRD&vgnextoid=a1eff3216571c010VgnVCM1000000b205a0aRCRD";"PIO XII";"AVENIDA";"V";"14";"";"";"";"";"MADRID";"MADRID";"28016";"NUEVA ESPAÑA";"CHAMARTIN";"442735";"4479568";"40.46481349821753";"-3.6754666562248497";"913 532 169";"913 532 165 / 913 532 181";"";"/contenido/entidadesYorganismos/OrganismosInternacionales/EmbajadasConsulados"; 
7647050;"Embajada de Guinea-Bissau";"";"";"";"Metro: Avenida de América (líneas 4, 6, 7 y 9), Cartagena (línea 7).  Bus: 115, 114, 72, 122, 1, 200.  Bicimad: Estación 195 (Padre Indalencio Hernández, 1).  Aparcamiento: America (16), Intercambiado Avenida de América.";"";"3";"http://www.madrid.es/sites/v/index.jsp?vgnextchannel=bfa48ab43d6bb410VgnVCM100000171f5a0aRCRD&vgnextoid=1d5a2c5b46d98410VgnVCM2000000c205a0aRCRD";"AMERICA";"AVENIDA";"V";"16";"1";"DERECHA";"";"";"MADRID";"MADRID";"28028";"GUINDALERA";"SALAMANCA";"442754";"4476651";"40.438537097580785";"-3.674979575450985";"911 389 379 / 639 272 045";"";"embaixada.guinebissau@gmail.com";"/contenido/entidadesYorganismos/OrganismosInternacionales/EmbajadasConsulados"; 
7886;"Embajada de Haití";"";"";"";"Metro: Colón (línea 4), Alonso Martínez (lineas 4, 5 y 10).  Bus: 14, 150, 27, 45, 5.  Bicimad: Estación 104 (paseo de la Castellana, 4).  Aparcamiento: Serrano (39), calle Serrano entre Ortega Gasset y Hermosilla.";"";"3";"http://www.madrid.es/sites/v/index.jsp?vgnextchannel=bfa48ab43d6bb410VgnVCM100000171f5a0aRCRD&vgnextoid=34fff3216571c010VgnVCM1000000b205a0aRCRD";"CASTELLANA";"PASEO";"V";"15";"3";"B";"";"";"MADRID";"MADRID";"28046";"ALMAGRO";"CHAMBERI";"441455";"4475504";"40.42811394313855";"-3.690189203244315";"915 752 624";"914 314 600";"amb.espagne@diplomatie.ht";"/contenido/entidadesYorganismos/OrganismosInternacionales/EmbajadasConsulados"; 
7887;"Embajada de Honduras";"";"";"";"Metro: Cuzco (línea 10).  Bus: 11, 40, 147, 27, 5.  Bicimad: Estación 157 (paseo de la Castellana, 164).";"";"3";"http://www.madrid.es/sites/v/index.jsp?vgnextchannel=bfa48ab43d6bb410VgnVCM100000171f5a0aRCRD&vgnextoid=c600f3216571c010VgnVCM1000000b205a0aRCRD";"CASTELLANA";"PASEO";"V";"164";"2";"D";"";"";"MADRID";"MADRID";"28046";"NUEVA ESPAÑA";"CHAMARTIN";"441584";"4478966";"40.45931029243837";"-3.688986889788791";"913 531 806";"913 459 210";"info@embahonduras.es";"/contenido/entidadesYorganismos/OrganismosInternacionales/EmbajadasConsulados"; 
7888;"Embajada de Hungría";"";"";"";"Metro: Alonso Martínez (líneas 4, 5, 10), Colón (línea 4), Ruben Darío (línea 5).  Bus: 14, 150, 27, 45, 5, 7.  Bicimad: Estaciones 103 (calle Ortega y Gasset, 6) y 104 (paseo de la Castellana, 4).  Aparcamiento: Almagro (12), calle Almagro, 11.";"Sección Consular:   Dirección: Ángel de Diego Roldán, 21. Teléfono: 914 139 850. Fax: 914 164 454.";"3";"http://www.madrid.es/sites/v/index.jsp?vgnextchannel=bfa48ab43d6bb410VgnVCM100000171f5a0aRCRD&vgnextoid=5910f3216571c010VgnVCM1000000b205a0aRCRD";"FORTUNY";"CALLE";"V";"6";"4";"";"";"";"MADRID";"MADRID";"28010";"ALMAGRO";"CHAMBERI";"441391";"4475615";"40.42910937757233";"-3.6909538832505566";"914 137 099";"914 137 149";"mission.mad@mfa.gov.hu";"/contenido/entidadesYorganismos/OrganismosInternacionales/EmbajadasConsulados"; 
7889;"Embajada de India";"";"";"";"Metro: Duque de Pastrana (línea 9).  Bus: 107, 70, 150, 16, 29.";"Otros correos de contacto:   amboffice.madrid@mea.gov.in; dcm.madrid@mea.gov.in.";"3";"http://www.madrid.es/sites/v/index.jsp?vgnextchannel=bfa48ab43d6bb410VgnVCM100000171f5a0aRCRD&vgnextoid=eb20f3216571c010VgnVCM1000000b205a0aRCRD";"PIO XII";"AVENIDA";"V";"30";"";"";"";"y 32";"MADRID";"MADRID";"28016";"NUEVA ESPAÑA";"CHAMARTIN";"442810";"4479776";"40.46669236532539";"-3.674598330204083";"91 063 29 39/ 91 536 69 95";"";"socsec.madrid@mea.gov.in";"/contenido/entidadesYorganismos/OrganismosInternacionales/EmbajadasConsulados"; 
7891;"Embajada de Indonesia";"";"";"";"Bus: 115, 200, 122, 114.";"";"3";"http://www.madrid.es/sites/v/index.jsp?vgnextchannel=bfa48ab43d6bb410VgnVCM100000171f5a0aRCRD&vgnextoid=7e30f3216571c010VgnVCM1000000b205a0aRCRD";"AGASTIA";"CALLE";"V";"65";"";"";"";"";"MADRID";"MADRID";"28043";"SAN JUAN BAUTISTA";"CIUDAD LINEAL";"444570";"4477744";"40.448506444421625";"-3.6536640916192464";"914 130 294 / 914 130 594 / 914 135 715";"914 138 994";"madrid.kbri@kemlu.go.id";"/contenido/entidadesYorganismos/OrganismosInternacionales/EmbajadasConsulados"; 
11138674;"Embajada de Iran";"";"";"";"Metro: Pío XII (línea 9).  Bus: 150, 16, 29.";"";"3";"http://www.madrid.es/sites/v/index.jsp?vgnextchannel=bfa48ab43d6bb410VgnVCM100000171f5a0aRCRD&vgnextoid=b750292867d50710VgnVCM1000001d4a900aRCRD";"JEREZ";"CALLE";"V";"5";"";"";"";"Villa El Altozano";"MADRID";"MADRID";"28016";"NUEVA ESPAÑA";"CHAMARTIN";"442582";"4479501";"40.464201488428714";"-3.6772609590516034";"913 450 112 / 913 450 116 / 913 450 113";"913 451 190";"iranemb.mad@mfa.gov.ir";"/contenido/entidadesYorganismos/OrganismosInternacionales/EmbajadasConsulados"; 
7892;"Embajada de Iraq";"";"";"";"Metro: Arturo Soria (línea 4).  Bus: 150, 16, 29.";"";"3";"http://www.madrid.es/sites/v/index.jsp?vgnextchannel=bfa48ab43d6bb410VgnVCM100000171f5a0aRCRD&vgnextoid=9360f3216571c010VgnVCM1000000b205a0aRCRD";"CARRIL DEL CONDE";"CALLE";"V";"56";"";"";"";"";"MADRID";"MADRID";"28043";"CANILLAS";"HORTALEZA";"444505";"4479007";"40.45987984928293";"-3.654540960444581";"917 590 303 / 913 885 980 / 913 882 724";"917 218 682";"info@embajadadeirak.es";"/contenido/entidadesYorganismos/OrganismosInternacionales/EmbajadasConsulados"; 
7894;"Embajada de Irlanda";"";"";"";"Metro: Rubén Darío (línea 5), Núñez de Balboa (línea 5 y 9), Gregorio Marañón (líneas 7 y 10).  Bus: 19, 51, 9, 14, 150, 27, 45, 5, 61, 147, 16, 40, 7.  Bicimad: Estaciones 142 (paseo de la Castellana, 42), 141 (paseo de la Castellana, 43).  Aparcamiento: Serrano I (62), calle Serrano entre Hermanos Becquer y Marques de Villamejor.";"";"3";"http://www.madrid.es/sites/v/index.jsp?vgnextchannel=bfa48ab43d6bb410VgnVCM100000171f5a0aRCRD&vgnextoid=2670f3216571c010VgnVCM1000000b205a0aRCRD";"CASTELLANA";"PASEO";"V";"46";"4";"";"";"";"MADRID";"MADRID";"28046";"CASTELLANA";"SALAMANCA";"441656";"4476178";"40.43419977951646";"-3.6878816351465096";"914 364 093";"914 351 677";"madridembassy@dfa.ie";"/contenido/entidadesYorganismos/OrganismosInternacionales/EmbajadasConsulados"; 
7890;"Embajada de Israel";"";"";"";"Metro: República Argentina (línea 6), Cruz del Rayo (línea 9).  Bus: 16, 19, 51, C1, C2.";"";"3";"http://www.madrid.es/sites/v/index.jsp?vgnextchannel=bfa48ab43d6bb410VgnVCM100000171f5a0aRCRD&vgnextoid=b880f3216571c010VgnVCM1000000b205a0aRCRD";"VELAZQUEZ";"CALLE";"V";"150";"7";"";"";"";"MADRID";"MADRID";"28002";"EL VISO";"CHAMARTIN";"442246";"4477374";"40.44313375878361";"-3.68230095407924";"917 829 500";"917 829 555";"info@madrid.mfa.gov.il";"/contenido/entidadesYorganismos/OrganismosInternacionales/EmbajadasConsulados"; 
7895;"Embajada de Italia";"";"";"";"Metro: Núñez de Balboa (líneas 5 y 9).  Bus: 19, 51, 9.  Bicimad: Estación 88 (calle Velázquez, 75).  Aparcamiento: Calle Velázquez con Juan Bravo (58).";"";"3";"http://www.madrid.es/sites/v/index.jsp?vgnextchannel=bfa48ab43d6bb410VgnVCM100000171f5a0aRCRD&vgnextoid=4b90f3216571c010VgnVCM1000000b205a0aRCRD";"LAGASCA";"CALLE";"V";"98";"";"";"";"";"MADRID";"MADRID";"28006";"CASTELLANA";"SALAMANCA";"441936";"4475944";"40.43211138948028";"-3.6845592531777847";"914 233 300";"915 757 776";"segreamb.ambmadrid@esteri.it";"/contenido/entidadesYorganismos/OrganismosInternacionales/EmbajadasConsulados"; 
7896;"Embajada de Japón";"";"";"";"Metro: Gregorio Marañón (líneas 7 y 10), Republica Argentina (línea 6).  Bus: 16, 19, 51, 9.  Bicimad: Estación 250 (calle Serrano, 113B).";"";"3";"http://www.madrid.es/sites/v/index.jsp?vgnextchannel=bfa48ab43d6bb410VgnVCM100000171f5a0aRCRD&vgnextoid=dda0f3216571c010VgnVCM1000000b205a0aRCRD";"SERRANO";"CALLE";"V";"109";"";"";"";"";"MADRID";"MADRID";"28006";"EL VISO";"CHAMARTIN";"441794";"4476802";"40.43983073591458";"-3.6863118701222697";"915 907 600";"915 901 321";"";"/contenido/entidadesYorganismos/OrganismosInternacionales/EmbajadasConsulados"; 
7897;"Embajada de Jordania";"";"";"";"Metro: Rubén Dario (línea 5), Gregorio Marañón (líneas 7 y 10).  Bus: 147, 40, 7, 16, 5, 61.  Bicimad: Estaciones 141 (paseo de la Castellana, 43), 198 (glorieta Rubén Darío, 2).";"";"3";"http://www.madrid.es/sites/v/index.jsp?vgnextchannel=bfa48ab43d6bb410VgnVCM100000171f5a0aRCRD&vgnextoid=60c0f3216571c010VgnVCM1000000b205a0aRCRD";"GENERAL MARTINEZ CAMPOS";"PASEO";"V";"41";"5";"";"";"";"MADRID";"MADRID";"28010";"ALMAGRO";"CHAMBERI";"441323";"4476300";"40.43527538585405";"-3.691818732220474";"913 191 100 / 913 191 104";"913 082 536";"jordania@telefonica.net";"/contenido/entidadesYorganismos/OrganismosInternacionales/EmbajadasConsulados"; 
47034;"Embajada de Kazajstán";"";"";"";"";"";"3";"http://www.madrid.es/sites/v/index.jsp?vgnextchannel=bfa48ab43d6bb410VgnVCM100000171f5a0aRCRD&vgnextoid=ee8b7589f451c010VgnVCM1000000b205a0aRCRD";"MADROÑOS";"AVENIDA";"V";"43";"";"";"";"";"MADRID";"MADRID";"28043";"PIOVERA";"HORTALEZA";"445998";"4478682";"40.45705044578936";"-3.6369050297290753";"917 216 290";"917 219 374";"embajada@kazesp.org";"/contenido/entidadesYorganismos/OrganismosInternacionales/EmbajadasConsulados"; 
4645157;"Embajada de Kenia";"";"";"";"Metro: Concha Espina (línea 9), Santiago Bernabeu (línea 10).  Bus: 51, 7, 120, 43.  Bicimad: Estación 148 (calle Serrano, 210).";"";"3";"http://www.madrid.es/sites/v/index.jsp?vgnextchannel=bfa48ab43d6bb410VgnVCM100000171f5a0aRCRD&vgnextoid=68cc2c9577715110VgnVCM1000000b205a0aRCRD";"SEGRE";"CALLE";"V";"13";"";"";"";"";"MADRID";"MADRID";"28002";"EL VISO";"CHAMARTIN";"442029";"4478005";"40.45068779829347";"-3.6836476857574754";"917 812 000";"915 760 854";"info@kenyaembassyspain.es";"/contenido/entidadesYorganismos/OrganismosInternacionales/EmbajadasConsulados"; 
7912;"Embajada de Kuwait";"";"";"";"Bus: 82.";"";"3";"http://www.madrid.es/sites/v/index.jsp?vgnextchannel=bfa48ab43d6bb410VgnVCM100000171f5a0aRCRD&vgnextoid=f2d0f3216571c010VgnVCM1000000b205a0aRCRD";"MIRAFLORES";"AVENIDA";"V";"61";"";"";"";"";"MADRID";"MADRID";"28035";"CIUDAD UNIVERSITARIA";"MONCLOA-ARAVACA";"437885";"4480346";"40.47147353472993";"-3.7327465094176118";"913 869 666";"913 732 388";"";"/contenido/entidadesYorganismos/OrganismosInternacionales/EmbajadasConsulados"; 
21158;"Embajada de Letonia";"";"";"";"Autobus: 19, 001, 10, 14, 27, 34, 37, 45, C03.  Bicimad: Estaciones 65 (calle Antonio Maura, 15) y 68 (calle Espalter, 1).";"";"3";"http://www.madrid.es/sites/v/index.jsp?vgnextchannel=bfa48ab43d6bb410VgnVCM100000171f5a0aRCRD&vgnextoid=5ebc7d448b51c010VgnVCM2000000c205a0aRCRD";"MORETO";"CALLE";"V";"5";"1";"DERECHA";"";"";"MADRID";"MADRID";"28014";"LOS JERONIMOS";"RETIRO";"441437";"4473985";"40.41442775333952";"-3.6902558463144506";"913 691 362";"913 690 020";"embassy.spain@mfa.gov.lv";"/contenido/entidadesYorganismos/OrganismosInternacionales/EmbajadasConsulados"; 
7899;"Embajada de Libia";"";"";"";"Metro: Pío XII (línea 9).  Bus: 107, 29, 70.";"";"3";"http://www.madrid.es/sites/v/index.jsp?vgnextchannel=bfa48ab43d6bb410VgnVCM100000171f5a0aRCRD&vgnextoid=18f0f3216571c010VgnVCM1000000b205a0aRCRD";"COMANDANTE FRANCO";"AVENIDA";"V";"32";"";"";"";"";"MADRID";"MADRID";"28016";"NUEVA ESPAÑA";"CHAMARTIN";"442961";"4479687";"40.465901050911526";"-3.6728117554238167";"915 635 753 / 915 631 929";"915 643 986";"secretaria@embajadadelibia.com";"/contenido/entidadesYorganismos/OrganismosInternacionales/EmbajadasConsulados"; 
21161;"Embajada de Lituania";"";"";"";"Metro: Concha Espina (línea 9).  Bus: 51, 7.  Bicimad: Estación 148 (calle Serrano, 210).";"Asuntos Políticos y Económicos:    Teléfono: 917 022 117.   Asuntos Consulares:   Teléfono: 917 022 115. Correo electrónico: consul.es@urm.lt.";"3";"http://www.madrid.es/sites/v/index.jsp?vgnextchannel=bfa48ab43d6bb410VgnVCM100000171f5a0aRCRD&vgnextoid=e0dc7d448b51c010VgnVCM2000000c205a0aRCRD";"PISUERGA";"CALLE";"V";"5";"";"";"";"";"MADRID";"MADRID";"28002";"EL VISO";"CHAMARTIN";"442047";"4477854";"40.44932531380484";"-3.683424907566784";"917 022 116 / 917 022 118";"913 104 018";"amb.es@urm.lt";"/contenido/entidadesYorganismos/OrganismosInternacionales/EmbajadasConsulados"; 
7915;"Embajada de Luxemburgo";"";"";"";"Metro: Serrano (línea 4), Núñez de Balboa (líneas 5 y 9).  Bus: 1, 74, 19, 51, 9.  Bicimad: Estación 103 (calle Ortega y Gasset, 6).  Aparcamiento: Serrano II (39) calle Serrano entre Ortega Gasset y Hermosilla.";"";"3";"http://www.madrid.es/sites/v/index.jsp?vgnextchannel=bfa48ab43d6bb410VgnVCM100000171f5a0aRCRD&vgnextoid=aa01f3216571c010VgnVCM1000000b205a0aRCRD";"CLAUDIO COELLO";"CALLE";"V";"78";"1";"";"";"";"MADRID";"MADRID";"28001";"CASTELLANA";"SALAMANCA";"441847";"4475711";"40.43000619511413";"-3.685587151651725";"914 359 164";"915 774 826";"madrid.amb@mae.etat.lu";"/contenido/entidadesYorganismos/OrganismosInternacionales/EmbajadasConsulados"; 
7898;"Embajada de Líbano";"";"";"";"Metro: Serrano (línea 4).  Bus: 1, 19, 51, 74, 9.  Bicimad: Estaciones 105 (calle Serrano, 54), 87 (calle Ayala, 44) y 103 (calle José Ortega y Gasset, 4).  Aparcamiento: Serrano II (39) calle Serrano entre Ortega y Gasset y Hermosila.";"";"3";"http://www.madrid.es/sites/v/index.jsp?vgnextchannel=bfa48ab43d6bb410VgnVCM100000171f5a0aRCRD&vgnextoid=85e0f3216571c010VgnVCM1000000b205a0aRCRD";"CLAUDIO COELLO";"CALLE";"V";"65";"1";"";"";"";"MADRID";"MADRID";"28001";"RECOLETOS";"SALAMANCA";"441790";"4475523";"40.428315263386644";"-3.686232880384695";"913 451 368 / 913 451 370";"913 455 631";"madrid.leb1@gmail.com";"/contenido/entidadesYorganismos/OrganismosInternacionales/EmbajadasConsulados"; 
47049;"Embajada de Macedonia del Norte";"";"";"";"Metro: Manuel Becerra (líneas 2 y 6), Lista (línea 4).  Bus: 1, 74, 12, 210, 43, 56, C1, 146, 21, 53, 48, 110, 38, E5, C2, 143, 156.  Bicimad: Estaciones 145 (calle Ortega y Gasset, 87) y 108 (calle Mártires Concepcionistas, 2).";"";"3";"http://www.madrid.es/sites/v/index.jsp?vgnextchannel=bfa48ab43d6bb410VgnVCM100000171f5a0aRCRD&vgnextoid=71ab7589f451c010VgnVCM1000000b205a0aRCRD";"DON RAMON DE LA CRUZ";"CALLE";"V";"107";"2";"B";"";"";"MADRID";"MADRID";"28006";"LISTA";"SALAMANCA";"443070";"4475542";"40.42856835724131";"-3.6711545671911487";"915 717 298";"915 713 481";"madrid@mfa.gov.mk";"/contenido/entidadesYorganismos/OrganismosInternacionales/EmbajadasConsulados"; 
7916;"Embajada de Malasia";"";"";"";"";"";"3";"http://www.madrid.es/sites/v/index.jsp?vgnextchannel=bfa48ab43d6bb410VgnVCM100000171f5a0aRCRD&vgnextoid=3d11f3216571c010VgnVCM1000000b205a0aRCRD";"MADRO&amp;Ntilde;OS";"AVENIDA";"V";"63";"";"";"";"BIS";"MADRID";"MADRID";"28043";"PIOVERA";"HORTALEZA";"446370";"4478594";"40.456282559716115";"-3.6325036162338042";"915 550 684 / 915 550 737";"917 708 614";"mwmadrid@kln.gov.my";"/contenido/entidadesYorganismos/OrganismosInternacionales/EmbajadasConsulados"; 
169920;"Embajada de Mali";"";"";"";"Metro: República Argentina (línea 6), Cruz del Rayo (línea 9), Nuevos Ministerios (líneas, 6, 8 y 10).  Bus: 51, 7, 16, 19.  Cercanías Renfe: Nuevos Ministerios (líneas C1, C2, C3, C4, C7, C10 y Regional).  Bicimad: Estación 137 (plaza de la República Argentina, 6).";"";"3";"http://www.madrid.es/sites/v/index.jsp?vgnextchannel=bfa48ab43d6bb410VgnVCM100000171f5a0aRCRD&vgnextoid=58e6085f5181c010VgnVCM1000000b205a0aRCRD";"SERRANO";"CALLE";"V";"174";"";"";"";"";"MADRID";"MADRID";"28002";"EL VISO";"CHAMARTIN";"441994";"4477621";"40.447224313873804";"-3.6840241406946985";"";"914 351 516";"info@embajadademali.es";"/contenido/entidadesYorganismos/OrganismosInternacionales/EmbajadasConsulados"; 
7965;"Embajada de Malta";"";"";"";"Metro: Rubén Darío (línea 5), Gregorio Marañón (líneas 7 y 10).  Bus: 16, 5, 61, 147, 40, 7, 14, 150, 27, 45.  Bicimad: Estación 141 (Paseo Castellana, 43).  Aparcamiento: Serrano I (62) calle Serrano entre Hermanos Becquer y Marqués de Villamejor.";"";"3";"http://www.madrid.es/sites/v/index.jsp?vgnextchannel=bfa48ab43d6bb410VgnVCM100000171f5a0aRCRD&vgnextoid=cf21f3216571c010VgnVCM1000000b205a0aRCRD";"CASTELLANA";"PASEO";"V";"45";"6";"DERECHA";"";"";"MADRID";"MADRID";"28046";"ALMAGRO";"CHAMBERI";"441505";"4476346";"40.4357025961309";"-3.6896772816624206";"913 913 061";"913 913 066";"maltaembassy.madrid@gov.mt";"/contenido/entidadesYorganismos/OrganismosInternacionales/EmbajadasConsulados"; 
7900;"Embajada de Marruecos";"";"";"";"Metro: Concha Espina (línea 9).  Bus: 51, 7.  Bicimad: Estación 148 (calle Serrano, 210).";"";"3";"http://www.madrid.es/sites/v/index.jsp?vgnextchannel=bfa48ab43d6bb410VgnVCM100000171f5a0aRCRD&vgnextoid=5241f3216571c010VgnVCM1000000b205a0aRCRD";"SERRANO";"CALLE";"V";"179";"";"";"";"";"MADRID";"MADRID";"28002";"EL VISO";"CHAMARTIN";"442196";"4478074";"40.44943613336201";"-3.682966115908703";"915 631 090";"915 617 887";"simafa1@infonegocio.com";"/contenido/entidadesYorganismos/OrganismosInternacionales/EmbajadasConsulados"; 
7901;"Embajada de Mauritania";"";"";"";"Bus: 137, 82.";"";"3";"http://www.madrid.es/sites/v/index.jsp?vgnextchannel=bfa48ab43d6bb410VgnVCM100000171f5a0aRCRD&vgnextoid=e451f3216571c010VgnVCM1000000b205a0aRCRD";"PIEDRALAVES";"CALLE";"V";"4";"Baja";"";"";"";"MADRID";"MADRID";"28035";"CIUDAD UNIVERSITARIA";"MONCLOA-ARAVACA";"438245";"4479459";"40.46350997750835";"-3.7284137219262607";"915 757 006 / 915 757 007";"914 359 531";"ambarim@embajadamauritania.es";"/contenido/entidadesYorganismos/OrganismosInternacionales/EmbajadasConsulados"; 
6327335;"Embajada de Moldavia";"";"";"";"Metro: Cuzco (línea 10), Plaza de Castilla (líneas 1, 9 y 10).  Bus: 147, 27, 5, 11, 40.  Bicimad: Estación 157 (paseo de la Castellana, 164).";"";"3";"http://www.madrid.es/sites/v/index.jsp?vgnextchannel=bfa48ab43d6bb410VgnVCM100000171f5a0aRCRD&vgnextoid=f089749e94f95310VgnVCM2000000c205a0aRCRD";"CASTELLANA";"PASEO";"V";"178";"5";"D";"";"";"MADRID";"MADRID";"28046";"NUEVA ESPAÑA";"CHAMARTIN";"441575";"4479134";"40.4608230762265";"-3.689108497357059";"918 287 989";"917 045 029";"madrid@mfa.gov.md";"/contenido/entidadesYorganismos/OrganismosInternacionales/EmbajadasConsulados"; 
10894446;"Embajada de Montenegro";"";"";"";"Metro: Retiro (línea 2).  Autobus: 2, 20, 28, 1, 19, 51, 74, 9.  Bicimad: Estación 102 (calle Alcalá, 95).";"";"3";"http://www.madrid.es/sites/v/index.jsp?vgnextchannel=bfa48ab43d6bb410VgnVCM100000171f5a0aRCRD&vgnextoid=72b8c7d6b1a09610VgnVCM1000001d4a900aRCRD";"ALCALA";"CALLE";"V";"89";"Bajo";"izquierda";"";"";"MADRID";"MADRID";"28009";"RECOLETOS";"SALAMANCA";"441873";"4474703";"40.42093283981246";"-3.685179596781701";"910 665 164";"915 026 152";"spain@mfa.gov.me";"/contenido/entidadesYorganismos/OrganismosInternacionales/EmbajadasConsulados"; 
20622;"Embajada de Mozambique";"";"";"";"Metro: Concha Espina (línea 9), Santiago Bernabeu (línea 10) y Nuevos Ministerios (líneas 6, 8 y 10).  Bus: 51, 7.  Cercanías Renfe: Nuevos Ministerios (líneas C1, C2, C3, C4, C7, C10 y Regional).";"";"3";"http://www.madrid.es/sites/v/index.jsp?vgnextchannel=bfa48ab43d6bb410VgnVCM100000171f5a0aRCRD&vgnextoid=980d7d448b51c010VgnVCM2000000c205a0aRCRD";"ALFONSO RODRIGUEZ SANTAMARIA";"CALLE";"V";"8";"";"";"";"";"MADRID";"MADRID";"28002";"EL VISO";"CHAMARTIN";"441906";"4477816";"40.44897315044939";"-3.685084095674594";"915 773 682";"915 776 705";"embamoc.madrid@hotmail.com";"/contenido/entidadesYorganismos/OrganismosInternacionales/EmbajadasConsulados"; 
7902;"Embajada de México";"";"";"";"Metro: Sevilla (línea 2), Antón Martín (línea 1).  Bus: 53, 002, 52, M1, 15, 20.  Bicimad: Estación 29 (calle Marqués de Cubas, 25).  Aparcamiento: Cortes (46), plaza de las Cortes.";"";"3";"http://www.madrid.es/sites/v/index.jsp?vgnextchannel=bfa48ab43d6bb410VgnVCM100000171f5a0aRCRD&vgnextoid=7761f3216571c010VgnVCM1000000b205a0aRCRD";"SAN JERONIMO";"CARRERA";"V";"46";"";"";"";"";"MADRID";"MADRID";"28014";"CORTES";"CENTRO";"440838";"4474170";"40.41605298613373";"-3.697338423479512";"913 692 814";"914 202 292";"comunicacionesesp@sre.gob.mx";"/contenido/entidadesYorganismos/OrganismosInternacionales/EmbajadasConsulados"; 
7958;"Embajada de Mónaco";"";"";"";"Metro: Retiro (línea 2), Serrano (línea 4).  Bus: 1, 9, 19, 51, 74  Cercanías Renfe: Recoletos (líneas C1, C2, C7, C10 y Regional).  Bicimad: Estaciones 95 (calle Claudio Coello, 109) y 107 (calle Serrano, 8).  Aparcamiento: plaza de Colón (2).";"";"3";"http://www.madrid.es/sites/v/index.jsp?vgnextchannel=bfa48ab43d6bb410VgnVCM100000171f5a0aRCRD&vgnextoid=0a71f3216571c010VgnVCM1000000b205a0aRCRD";"VILLANUEVA";"CALLE";"V";"12";"Entreplanta";"A";"";"";"MADRID";"MADRID";"28001";"RECOLETOS";"SALAMANCA";"441573";"4474885";"40.42254598598297";"-3.68874131027488";"915 782 048";"914 357 132";"emb.espana@gouv.mc";"/contenido/entidadesYorganismos/OrganismosInternacionales/EmbajadasConsulados"; 
7903;"Embajada de Nicaragua";"";"";"";"Metro: Arturo Soria (línea 4) y Esperanza (línea 4).  Bus: 120, 122.";"";"3";"http://www.madrid.es/sites/v/index.jsp?vgnextchannel=bfa48ab43d6bb410VgnVCM100000171f5a0aRCRD&vgnextoid=9c81f3216571c010VgnVCM1000000b205a0aRCRD";"PUERTO DE SANTA MARIA";"CALLE";"V";"73";"";"B";"";"";"MADRID";"MADRID";"28043";"CANILLAS";"HORTALEZA";"444684";"4478943";"40.45931841429917";"-3.6524238447949635";"914 171 649";"";"embajada.espana@cancilleria.gob.ni";"/contenido/entidadesYorganismos/OrganismosInternacionales/EmbajadasConsulados"; 
7904;"Embajada de Nigeria";"";"";"";"Metro: Santiago Bernabéu (línea 10), Concha Espina (línea 9).  Bus: 120, 43, 14.";"";"3";"http://www.madrid.es/sites/v/index.jsp?vgnextchannel=bfa48ab43d6bb410VgnVCM100000171f5a0aRCRD&vgnextoid=2f91f3216571c010VgnVCM1000000b205a0aRCRD";"SEGRE";"CALLE";"V";"23";"";"";"";"";"MADRID";"MADRID";"28002";"EL VISO";"CHAMARTIN";"441930";"4478051";"40.45109181438889";"-3.6848225800571006";"915 630 911 / 915 633 144 / 915 630 971";"914 116 700 / 915 636 320";"";"/contenido/entidadesYorganismos/OrganismosInternacionales/EmbajadasConsulados"; 
7905;"Embajada de Noruega";"";"";"";"Metro: Colón (línea 4), Serrano (línea 4), Retiro (línea 2).  Bus: 21, 53, 1, 19, 51, 74, 9.  Cercanías Renfe: Recoletos (líneas C1, C2, C7, C10 y Regional).  Bicimad: Estaciones 106 a y b (calle Serrano, 34).  Aparcamiento: Colón (2), plaza de Colón.";"";"3";"http://www.madrid.es/sites/v/index.jsp?vgnextchannel=bfa48ab43d6bb410VgnVCM100000171f5a0aRCRD&vgnextoid=b1b1f3216571c010VgnVCM1000000b205a0aRCRD";"SERRANO";"CALLE";"V";"26";"5";"";"";"";"MADRID";"MADRID";"28001";"RECOLETOS";"SALAMANCA";"441648";"4475067";"40.42419079459679";"-3.6878739673021554";"914 363 840";"914 363 879";"emb.madrid@mfa.no";"/contenido/entidadesYorganismos/OrganismosInternacionales/EmbajadasConsulados"; 
7956;"Embajada de Nueva Zelanda";"";"";"";"Metro: Gregorio Marañón (líneas 7 y 10).  Bus: 12, 16, 61, 14, 150, 27, 45, 147, 40, 7.  Bicimad: Estación 141 (paseo de la Castellana, 43).  Aparcamiento: Serrano I (62), calle Serrano entre Hermanos Becquer y Marqués de Villamejor.";"";"3";"http://www.madrid.es/sites/v/index.jsp?vgnextchannel=bfa48ab43d6bb410VgnVCM100000171f5a0aRCRD&vgnextoid=44c1f3216571c010VgnVCM1000000b205a0aRCRD";"PINAR";"CALLE";"V";"7";"3";"";"";"";"MADRID";"MADRID";"28006";"CASTELLANA";"SALAMANCA";"441605";"4476519";"40.43726808887648";"-3.6885142239148925";"915 230 226";"915 230 171";"embnuevazelanda@telefonica.net";"/contenido/entidadesYorganismos/OrganismosInternacionales/EmbajadasConsulados"; 
4647536;"Embajada de Omán";"";"";"";"Bus: 124.";"";"3";"http://www.madrid.es/sites/v/index.jsp?vgnextchannel=bfa48ab43d6bb410VgnVCM100000171f5a0aRCRD&vgnextoid=d4a9e5e47e125110VgnVCM1000000b205a0aRCRD";"CARDENAL HERRERA ORIA";"AVENIDA";"V";"138";"";"";"";"";"MADRID";"MADRID";"28034";"MIRASIERRA";"FUENCARRAL-EL PARDO";"440585";"4482311";"40.489372517911235";"-3.701082104378252";"917 364 445";"917 354 536";"oman.emb.madrid@gmail.com";"/contenido/entidadesYorganismos/OrganismosInternacionales/EmbajadasConsulados"; 
33199;"Embajada de Orden de Malta";"";"";"";"Metro: Sevilla (línea 2), Antón Martín (línea 1).  Bus: 002, 52, M1, 53, 001, 10, 14, 27, 34, 37, 45, C03, 15, 20.  Bicimad: Estación 29 (calle del Marqués de Cubas, 25).  Aparcamiento: Cortes (46) plaza de las Cortes.";"";"3";"http://www.madrid.es/sites/v/index.jsp?vgnextchannel=bfa48ab43d6bb410VgnVCM100000171f5a0aRCRD&vgnextoid=1fcd059cb751c010VgnVCM2000000c205a0aRCRD";"PRADO";"CALLE";"V";"26";"";"";"";"";"MADRID";"MADRID";"28014";"CORTES";"CENTRO";"440830";"4474076";"40.41520561977732";"-3.6974239687412025";"914 201 857";"914 201 942";"spainembassy@orderofmalta.int";"/contenido/entidadesYorganismos/OrganismosInternacionales/EmbajadasConsulados"; 
7907;"Embajada de Pakistán";"";"";"";"Metro: Gregorio Marañón (líneas 7 y 10).  Bus: 16, 19, 51, 9, 12.  Bicimad: Estaciones 250 (calle Serrano, 113B), 139 (calle José Gutiérrez Abascal, 2).";"";"3";"http://www.madrid.es/sites/v/index.jsp?vgnextchannel=bfa48ab43d6bb410VgnVCM100000171f5a0aRCRD&vgnextoid=69e1f3216571c010VgnVCM1000000b205a0aRCRD";"PEDRO DE VALDIVIA";"CALLE";"V";"16";"";"";"";"";"MADRID";"MADRID";"28006";"EL VISO";"CHAMARTIN";"441648";"4476725";"40.43912685155856";"-3.688026179153966";"913 458 995 / 913 458 986";"913 458 158";"parepmadrid1@mofa.gov.pk";"/contenido/entidadesYorganismos/OrganismosInternacionales/EmbajadasConsulados"; 
6328329;"Embajada de Palestina";"";"";"";"Metro: Pio XII (línea 9), Duque de Pastrana (línea 9).  Bus: 150, 16, 29, 107, 70.";"";"3";"http://www.madrid.es/sites/v/index.jsp?vgnextchannel=bfa48ab43d6bb410VgnVCM100000171f5a0aRCRD&vgnextoid=44e4b589820a5310VgnVCM2000000c205a0aRCRD";"PIO XII";"AVENIDA";"V";"20";"";"";"";"";"MADRID";"MADRID";"28016";"NUEVA ESPAÑA";"CHAMARTIN";"442770";"4479685";"40.465869898534564";"-3.6750643949484867";"913 453 258 / 913 453 262";"913 454 287";"";"/contenido/entidadesYorganismos/OrganismosInternacionales/EmbajadasConsulados"; 
7908;"Embajada de Panamá";"";"";"";"Metro: Alonso Martínez (líneas 4, 5 y 10), Rubén Darío (línea 5).    Bus: 7.   Bicimad: Estación 198 (glorieta Rubén Darío, 2).  Aparcamiento: Almagro (12) calle Almagro número 11.";"";"3";"http://www.madrid.es/sites/v/index.jsp?vgnextchannel=bfa48ab43d6bb410VgnVCM100000171f5a0aRCRD&vgnextoid=fbf1f3216571c010VgnVCM1000000b205a0aRCRD";"CARACAS";"CALLE";"V";"23";"";"IZQUIERDA";"";"";"MADRID";"MADRID";"28010";"ALMAGRO";"CHAMBERI";"441137";"4475797";"40.43073323148883";"-3.6939542885166206";"915 765 001";"915 767 161";"";"/contenido/entidadesYorganismos/OrganismosInternacionales/EmbajadasConsulados"; 
7909;"Embajada de Paraguay";"";"";"";"Metro: Santiago Bernabeu (línea 10), Cuzco (línea 10).  Bus: 126, 147, 27, 40, 150, 5.  Bicimad: Estación 253 (calle Doctor Fleming, 7).";"";"3";"http://www.madrid.es/sites/v/index.jsp?vgnextchannel=bfa48ab43d6bb410VgnVCM100000171f5a0aRCRD&vgnextoid=8e02f3216571c010VgnVCM1000000b205a0aRCRD";"DOCTOR FLEMING";"CALLE";"V";"3";"1";"";"";"";"MADRID";"MADRID";"28036";"HISPANOAMERICA";"CHAMARTIN";"441550";"4478481";"40.45493881024835";"-3.689343217985603";"914 572 456";"914 570 924";"secretaria@embajadadelparaguay.es";"/contenido/entidadesYorganismos/OrganismosInternacionales/EmbajadasConsulados"; 
7906;"Embajada de Países Bajos";"";"";"";"Metro: Begoña (línea 10).  Bus: 124, 134, 135, 173, 175, 176, 178, 67, 147, 174, 66.  Bicimad: Estación 248 (calle Sinesio Delgado, 2).";"";"3";"http://www.madrid.es/sites/v/index.jsp?vgnextchannel=bfa48ab43d6bb410VgnVCM100000171f5a0aRCRD&vgnextoid=d6d1f3216571c010VgnVCM1000000b205a0aRCRD";"CASTELLANA";"PASEO";"V";"259";"36";"";"";"D";"MADRID";"MADRID";"28046";"LA PAZ";"FUENCARRAL-EL PARDO";"441744";"4480809";"40.47592404926307";"-3.6872691224974417";"913 537 500";"913 537 565";"mad@minbuza.nl";"/contenido/entidadesYorganismos/OrganismosInternacionales/EmbajadasConsulados"; 
7910;"Embajada de Perú";"";"";"";"Metro: Gregorio Marañón (líneas 7 y 10), Rubén Darío (línea 5), Iglesia (línea 1).  Bus: 16, 5, 61, 147, 40, 7.  Bicimad: Estación 125 (calle Fernández de la Hoz, 29).";"";"3";"http://www.madrid.es/sites/v/index.jsp?vgnextchannel=bfa48ab43d6bb410VgnVCM100000171f5a0aRCRD&vgnextoid=1122f3216571c010VgnVCM1000000b205a0aRCRD";"ZURBANO";"CALLE";"V";"70";"BAJA";"";"";"";"MADRID";"MADRID";"28010";"ALMAGRO";"CHAMBERI";"441336";"4476607";"40.43616945348523";"-3.692959769973163";"914 314 242";"915 776 861";"lepru@embajadaperu.es";"/contenido/entidadesYorganismos/OrganismosInternacionales/EmbajadasConsulados"; 
7911;"Embajada de Polonia";"";"";"";"Bus: 82, 137.";"";"3";"http://www.madrid.es/sites/v/index.jsp?vgnextchannel=bfa48ab43d6bb410VgnVCM100000171f5a0aRCRD&vgnextoid=a332f3216571c010VgnVCM1000000b205a0aRCRD";"GUISANDO";"CALLE";"V";"23";"";"";"";"BIS";"MADRID";"MADRID";"28035";"CIUDAD UNIVERSITARIA";"MONCLOA-ARAVACA";"438085";"4480274";"40.470839866907276";"-3.7303803419819235";"913 736 605";"913 769 572";"madryt.amb.sekretariat@msz.gov.pl";"/contenido/entidadesYorganismos/OrganismosInternacionales/EmbajadasConsulados"; 
7917;"Embajada de Portugal";"";"";"";"Metro: Núñez de Balboa (líneas 5 y 9).   Bus: 1, 19, 51, 74,  9.   Bicimad: Estaciones 103 (calle José Ortega y Gasset, 4) y 88 (calle Velázquez, 75).  Aparcamiento: Velézquez Juan Bravo (58) calle Velázquez y calle Juan Bravo.";"Asuntos Consulares:   Dirección: calle Lagasca 88, 4&amp;ordm;-C, 28001, Madrid Teléfono: 915 773 585 Fax: 915 776 802 Correo electrónico: secretaria@madrid.dgaccp.pt    Consejería de Educación:   Dirección: calle Lagasca 88, 4&amp;ordm;-C, 28001, Madrid Teléfono: 913 080 696 Fax: 913 080 732 Correo electrónico: cepe.espanha@camoens.mne.pt    Asuntos Comerciales:   Dirección: Calle Lagasca 88, 4&amp;ordm;-B, 28001, Madrid Teléfono: 917 617 200 Fax: 915 711 424 Correo electrónico: aicep.madrid@portugalglobal.pt    Asuntos de Turismo:   Dirección: calle Lagasca 88, 4&amp;ordm;-B, 28001, Madrid Teléfono: 917 617 200 / 902 190 019 Fax: 915 711 424 E-mail: edt.espanha@turismodeportugal.pt";"3";"http://www.madrid.es/sites/v/index.jsp?vgnextchannel=bfa48ab43d6bb410VgnVCM100000171f5a0aRCRD&vgnextoid=3642f3216571c010VgnVCM1000000b205a0aRCRD";"LAGASCA";"CALLE";"V";"88";"4";"A";"";"";"MADRID";"MADRID";"28001";"CASTELLANA";"SALAMANCA";"441918";"4475700";"40.42991206232817";"-3.6847491581278606";"917 824 960";"917 824 972";"madrid@mne.pt";"/contenido/entidadesYorganismos/OrganismosInternacionales/EmbajadasConsulados"; 
170151;"Embajada de Qatar";"";"";"";"Metro: Alonso Martínez (líneas 4, 5 y 10), Colón (línea 4).  Bus: 14, 150, 27, 45, 5.  Bicimad: Estación 104 (paseo de la Castellana, 4).";"";"3";"http://www.madrid.es/sites/v/index.jsp?vgnextchannel=bfa48ab43d6bb410VgnVCM100000171f5a0aRCRD&vgnextoid=c9eae0e1f181c010VgnVCM1000000b205a0aRCRD";"CASTELLANA";"PASEO";"V";"15";"5";"";"";"";"MADRID";"MADRID";"28046";"ALMAGRO";"CHAMBERI";"441455";"4475504";"40.42811394313855";"-3.690189203244315";"913 106 926";"913 104 851";"";"/contenido/entidadesYorganismos/OrganismosInternacionales/EmbajadasConsulados"; 
7883;"Embajada de Reino Unido de Gran Bretaña e Irlanda del Norte";"";"";"";"Metro: Begoña (línea 10).  Bus: 124, 134, 135, 173, 175, 176, 178, 67, 147, 174, 66.  Bicimad: Estación 248 (calle Sinesio Delgado, 2).";"";"3";"http://www.madrid.es/sites/v/index.jsp?vgnextchannel=bfa48ab43d6bb410VgnVCM100000171f5a0aRCRD&vgnextoid=c852f3216571c010VgnVCM1000000b205a0aRCRD";"CASTELLANA";"PASEO";"V";"259";"";"D";"";"Torre Espacio";"MADRID";"MADRID";"28046";"LA PAZ";"FUENCARRAL-EL PARDO";"441744";"4480809";"40.47592404926307";"-3.6872691224974417";"917 146 300";"917 146 305";"Oliver.Thorpe@fco.gov.uk";"/contenido/entidadesYorganismos/OrganismosInternacionales/EmbajadasConsulados"; 
7962;"Embajada de República Checa";"";"";"";"Metro: Duque de Pastrana (línea 9), Pío XII (línea 9).  Bus: 107, 29, 70.";"";"3";"http://www.madrid.es/sites/v/index.jsp?vgnextchannel=bfa48ab43d6bb410VgnVCM100000171f5a0aRCRD&vgnextoid=5b62f3216571c010VgnVCM1000000b205a0aRCRD";"COMANDANTE FRANCO";"AVENIDA";"V";"34";"";"";"";"";"MADRID";"MADRID";"28016";"NUEVA ESPAÑA";"CHAMARTIN";"442995";"4479691";"40.46594286739446";"-3.672409949254646";"913 531 880";"913 531 885";"madrid@embassy.mzv.cz";"/contenido/entidadesYorganismos/OrganismosInternacionales/EmbajadasConsulados"; 
7918;"Embajada de República Dominicana";"";"";"";"Metro: Rubén Darío (línea 5), Núñez de Balboa (líneas 5, 9).  Bus: 19, 51, 9, 14, 150, 27, 45, 5.  Bicimad: Estaciones 103 (calle José Ortega y Gasset, 4) y 142 (paseo de la Castellana, 42).";"";"3";"http://www.madrid.es/sites/v/index.jsp?vgnextchannel=bfa48ab43d6bb410VgnVCM100000171f5a0aRCRD&vgnextoid=ed72f3216571c010VgnVCM1000000b205a0aRCRD";"CASTELLANA";"PASEO";"V";"30";"1";"DERECHA";"";"";"MADRID";"MADRID";"28046";"CASTELLANA";"SALAMANCA";"441619";"4475887";"40.43157571673001";"-3.6882911089925896";"914 315 395";"914 358 139";"embajada@embajadadominicana.es";"/contenido/entidadesYorganismos/OrganismosInternacionales/EmbajadasConsulados"; 
7919;"Embajada de Rumanía";"";"";"";"Metro: Colombia (líneas 8 y 9), Pio XII (línea 9).  Bus: 51, 150, 11, 40, 16, 29.  Bicimad: Estación 254 (avenida Pío XII, 3).  Aparcamiento: República Dominicana (61), plaza República Dominicana.";"Sección Consular:   Avenida de la Albufera, 319. Teléfonos: 913 501 881 / 649 656 032. Fax: 914 165 025. Correo electrónico: madrid.consul@mae.ro.";"3";"http://www.madrid.es/sites/v/index.jsp?vgnextchannel=bfa48ab43d6bb410VgnVCM100000171f5a0aRCRD&vgnextoid=7092f3216571c010VgnVCM1000000b205a0aRCRD";"ALFONSO XIII";"AVENIDA";"V";"157";"";"";"";"";"MADRID";"MADRID";"28016";"NUEVA ESPAÑA";"CHAMARTIN";"442485";"4479057";"40.46019291202317";"-3.6783690131760567";"913 599 425";"913 452 917";"madrid@mae.ro";"/contenido/entidadesYorganismos/OrganismosInternacionales/EmbajadasConsulados"; 
7928;"Embajada de Rusia";"";"";"";"Metro: República Argentina (línea 6), Cruz del Rayo (línea 9).  Bus: 7, C2, 16, 19, C1, 51.  Bicimad: Estación 137 (plaza de la República Argentina, 6).";"Asuntos Consulares:   Calle Joaquín Costa, 33. Teléfono 914 112 957. Fax: 915 627 830. Correo electrónico: consm@arrakis.es.   Asuntos Comerciales:   Calle Carbonero y Sol, 2. Teléfonos: 915 624 449 y 914 111 900. Fax: 914 111 950. Correo electrónico: info@rusiaspain.com";"3";"http://www.madrid.es/sites/v/index.jsp?vgnextchannel=bfa48ab43d6bb410VgnVCM100000171f5a0aRCRD&vgnextoid=03a2f3216571c010VgnVCM1000000b205a0aRCRD";"VELAZQUEZ";"CALLE";"V";"155";"";"";"";"";"MADRID";"MADRID";"28002";"EL VISO";"CHAMARTIN";"442081";"4477346";"40.444751383993676";"-3.6829776549736115";"915 622 264 / 914 110 807";"915 629 712";"embrues@infonegocio.com";"/contenido/entidadesYorganismos/OrganismosInternacionales/EmbajadasConsulados"; 
21162;"Embajada de San Marino";"";"";"";"Metro: Cruz del Rayo (línea 9), Prosperidad (línea 4), Avenida de América (líneas 4, 6, 7 y 9).  Bus: 73, 9, 29, 52, 1.  Bicimad: Estaciones 146 (calle María Francisca, 1), 195 (avenida de América, 1).  Aparcamiento: América (16) Intercambiador Avenida de América.";"";"3";"http://www.madrid.es/sites/v/index.jsp?vgnextchannel=bfa48ab43d6bb410VgnVCM100000171f5a0aRCRD&vgnextoid=06fc7d448b51c010VgnVCM2000000c205a0aRCRD";"PADRE JESUS ORDO&amp;Ntilde;EZ";"CALLE";"V";"18";"3";"IZQUIERDA";"";"";"MADRID";"MADRID";"28002";"PROSPERIDAD";"CHAMARTIN";"442527";"4476977";"40.44145820584704";"-3.6776854132094505";"915 639 000";"915 631 931";"amb.spagna@gov.sm";"/contenido/entidadesYorganismos/OrganismosInternacionales/EmbajadasConsulados"; 
67679;"Embajada de Santa Sede (Nunciatura apostólica)";"";"";"";"Metro: Duque de Pastrana (línea 9).  Bus: 150, 16.";"";"3";"http://www.madrid.es/sites/v/index.jsp?vgnextchannel=bfa48ab43d6bb410VgnVCM100000171f5a0aRCRD&vgnextoid=0763827a9e41c010VgnVCM2000000c205a0aRCRD";"PIO XII";"AVENIDA";"V";"46";"";"";"";"";"MADRID";"MADRID";"28016";"CASTILLA";"CHAMARTIN";"442920";"4479990";"40.4686277265949";"-3.673334399530984";"917 668 311";"917 667 085";"nunap@nunciaturapostolica.es";"/contenido/entidadesYorganismos/OrganismosInternacionales/EmbajadasConsulados"; 
98181;"Embajada de Senegal";"";"";"";"Metro: Herrera Oria (línea 9).  Bus: 133, 124.";"";"3";"http://www.madrid.es/sites/v/index.jsp?vgnextchannel=bfa48ab43d6bb410VgnVCM100000171f5a0aRCRD&vgnextoid=f6794f36ff81c010VgnVCM1000000b205a0aRCRD";"MORALZARZAL";"CALLE";"V";"18";"";"";"";"";"MADRID";"MADRID";"28034";"MIRASIERRA";"FUENCARRAL-EL PARDO";"440267";"4482310";"40.4893449888833";"-3.704826324433652";"917 451 003";"917 451 148";"";"/contenido/entidadesYorganismos/OrganismosInternacionales/EmbajadasConsulados"; 
127109;"Embajada de Serbia";"";"";"";"Metro: Retiro (línea 2).  Bus: 1, 19, 51, 74, 9, 2, 20, 28, 146, 15, 52.  Bicimad: Estación 102 (calle Alcalá, 95).";"";"3";"http://www.madrid.es/sites/v/index.jsp?vgnextchannel=bfa48ab43d6bb410VgnVCM100000171f5a0aRCRD&vgnextoid=16048899fc81c010VgnVCM1000000b205a0aRCRD";"VELAZQUEZ";"CALLE";"V";"3";"";"";"";"";"MADRID";"MADRID";"28001";"RECOLETOS";"SALAMANCA";"441920";"4474765";"40.42148926032306";"-3.6846401694200934";"915 635 045 / 915 635 046";"915 630 440";"ambasada.madrid@mfa.rs";"/contenido/entidadesYorganismos/OrganismosInternacionales/EmbajadasConsulados"; 
7921;"Embajada de Siria";"";"";"";"Metro: Antón Martín (línea 1), Estación del Arte (Atocha) (línea 1).  Bus: 001, 10, 14, 27, 34, 37, 45, C03.  Cercanías Renfe: Atocha (líneas C1, C2, C3, C4, C5, C7, C10).  Bicimad: Estaciones 27 (calle Jesús, 1), 67 (calle Almadén, 28), 68 (calle Espalter, 1).";"";"3";"http://www.madrid.es/sites/v/index.jsp?vgnextchannel=bfa48ab43d6bb410VgnVCM100000171f5a0aRCRD&vgnextoid=95b2f3216571c010VgnVCM1000000b205a0aRCRD";"PLATERIA DE MARTINEZ";"PLAZA";"V";"1";"1";"";"";"";"MADRID";"MADRID";"28014";"CORTES";"CENTRO";"441141";"4473777";"40.4125341323426";"-3.6937308712796155";"914 201 602";"914 202 681";"embajada.siria@hotmail.com";"/contenido/entidadesYorganismos/OrganismosInternacionales/EmbajadasConsulados"; 
7922;"Embajada de Sudáfrica";"";"";"";"Metro: Núñez de Balboa (líneas 5 y 9), Rubén Darío (línea 5).  Bus: 1, 74, 19, 51, 9.  Bicimad: Estación 130 (calle Ortega y Gasset, 4).  Aparcamientos: Serrano II (39), calle Serrano entre Ortega Gasset y Hermosilla; Velázquez Juan Bravo (58), calle Velázquez y calle Juan Bravo.";"";"3";"http://www.madrid.es/sites/v/index.jsp?vgnextchannel=bfa48ab43d6bb410VgnVCM100000171f5a0aRCRD&vgnextoid=28c2f3216571c010VgnVCM1000000b205a0aRCRD";"CLAUDIO COELLO";"CALLE";"V";"91";"6 y 7";"";"";"";"MADRID";"MADRID";"28006";"CASTELLANA";"SALAMANCA";"441821";"4475787";"40.43068902185026";"-3.6859006104054375";"914 363 780";"915 777 414";"madrid.embassy@dirco.gov.za";"/contenido/entidadesYorganismos/OrganismosInternacionales/EmbajadasConsulados"; 
99100;"Embajada de Sudán";"";"";"";"Bus: 82.";"";"3";"http://www.madrid.es/sites/v/index.jsp?vgnextchannel=bfa48ab43d6bb410VgnVCM100000171f5a0aRCRD&vgnextoid=89894f36ff81c010VgnVCM1000000b205a0aRCRD";"MIRAFLORES";"AVENIDA";"V";"63";"";"";"";"";"MADRID";"MADRID";"28035";"CIUDAD UNIVERSITARIA";"MONCLOA-ARAVACA";"437853";"4480408";"40.47203025842744";"-3.733123924003301";"914 174 903";"915 972 516";"";"/contenido/entidadesYorganismos/OrganismosInternacionales/EmbajadasConsulados"; 
7923;"Embajada de Suecia";"";"";"";"Metro: Rubén Darío (línea 5), Alonso Martínez (líneas 4, 5 y 10).  Bus: 7.  Bicimad: Estaciones 8 (plaza de Alnso Martínez, 5), 198 (glorieta Rubén Darío, 2), 122 (calle Santa Engracia, 14).  Aparcamiento: Almagro (12) calle Almagro, 11.";"Asuntos Comerciales:   Dirección: calle Zurbano, 27. Teléfono: 914 442 600. Fax: 915 933 445. E-mail: spanien@swedistrade.se.    Página web: www.swedistrade.se/spanien, www.tradewithsweden.com.";"3";"http://www.madrid.es/sites/v/index.jsp?vgnextchannel=bfa48ab43d6bb410VgnVCM100000171f5a0aRCRD&vgnextoid=bad2f3216571c010VgnVCM1000000b205a0aRCRD";"CARACAS";"CALLE";"V";"25";"";"";"";"";"MADRID";"MADRID";"28010";"ALMAGRO";"CHAMBERI";"441162";"4475795";"40.43071473630789";"-3.6936700862940017";"917 022 000";"917 022 040";"ambassaden.madrid@gov.se";"/contenido/entidadesYorganismos/OrganismosInternacionales/EmbajadasConsulados"; 
7924;"Embajada de Suiza";"";"";"";"Metro: Velázquez (línea 4), Príncipe de Vergara (líneas 2 y 9).  Bus: 1, 19, 51, 74, 9, 21, 53.  Bicimad: Estación 90 (calle Goya, 18).";"";"3";"http://www.madrid.es/sites/v/index.jsp?vgnextchannel=bfa48ab43d6bb410VgnVCM100000171f5a0aRCRD&vgnextoid=4de2f3216571c010VgnVCM1000000b205a0aRCRD";"NU&amp;Ntilde;EZ DE BALBOA";"CALLE";"V";"35";"7";"";"";"35A";"MADRID";"MADRID";"28001";"RECOLETOS";"SALAMANCA";"442073";"4475204";"40.42545465763344";"-3.682876737414012";"914 363 960";"914 363 980";"madrid.cc@eda.admin.ch";"/contenido/entidadesYorganismos/OrganismosInternacionales/EmbajadasConsulados"; 
7925;"Embajada de Tailandia";"";"";"";"Metro: República Argentina (línea 6), Nuevos Ministerios (6, 8 y 10).  Bus: 7, C2, C1, 16, 19, 51.  Cercanías Renfe: Nuevos Ministerios (líneas C1, C2, C3, C4, C7, C10 y Regional).  Bicimad: Estación 137 (plaza de la República Argentina, 6).";"";"3";"http://www.madrid.es/sites/v/index.jsp?vgnextchannel=bfa48ab43d6bb410VgnVCM100000171f5a0aRCRD&vgnextoid=dff2f3216571c010VgnVCM1000000b205a0aRCRD";"JOAQUIN COSTA";"CALLE";"V";"29";"";"";"";"";"MADRID";"MADRID";"28002";"EL VISO";"CHAMARTIN";"441818";"4477490";"40.44603023889291";"-3.686091916414186";"915 632 903";"";"contacto@thaiembmadrid.es";"/contenido/entidadesYorganismos/OrganismosInternacionales/EmbajadasConsulados"; 
7927;"Embajada de Turquía";"";"";"";"Metro: Rubén Darío (línea 5), Gregorio Marañón (líneas 7 y 10), Iglesia (línea 1).  Bus: 147, 40, 16, 5, 61.  Bicimad: Estación 125 (calle Fernández de la Hoz, 29).";"Cancillería:   Dirección: calle Rafael Calvo, 18, 2.&amp;ordm; A/B, 28010, Madrid. Teléfono: 913 103 904. Fax: 913 086 602. Correo electrónico: embajada.madrid@mfa.gov.tr.    Asuntos Comerciales:   Dirección: calle Covarrubias 9, 4.&amp;ordm; Derecha, 28010, Madrid Teléfono: 913 104 999 / 913 082 551 Fax: 913 104 999   Consejería de Información:   Dirección: calle Antonio Maura 18, 2.&amp;ordm;D, 28014, Madrid.";"3";"http://www.madrid.es/sites/v/index.jsp?vgnextchannel=bfa48ab43d6bb410VgnVCM100000171f5a0aRCRD&vgnextoid=f423f3216571c010VgnVCM1000000b205a0aRCRD";"RAFAEL CALVO";"CALLE";"V";"18";"2";"A/B";"";"";"MADRID";"MADRID";"28010";"ALMAGRO";"CHAMBERI";"441120";"4476146";"40.43387373574068";"-3.6941977264344406";"Consultar datos de contacto en la pestaña 'más información'.";"";"embajada.madrid@mfa.gov.tr";"/contenido/entidadesYorganismos/OrganismosInternacionales/EmbajadasConsulados"; 
7926;"Embajada de Túnez";"";"";"";"Metro: Avenida de La Paz (línea 4).  Bus: 40, 120, 72, 73, 9.";"";"3";"http://www.madrid.es/sites/v/index.jsp?vgnextchannel=bfa48ab43d6bb410VgnVCM100000171f5a0aRCRD&vgnextoid=6213f3216571c010VgnVCM1000000b205a0aRCRD";"ALFONSO XIII";"AVENIDA";"V";"64";"";"";"- 66 - 68";"";"MADRID";"MADRID";"28016";"HISPANOAMERICA";"CHAMARTIN";"443448";"4478363";"40.454007125972694";"-3.6669496805547963";"914 473 508 / 914 473 512";"915 938 416";"";"/contenido/entidadesYorganismos/OrganismosInternacionales/EmbajadasConsulados"; 
127145;"Embajada de Ucrania";"";"";"";"";"";"3";"http://www.madrid.es/sites/v/index.jsp?vgnextchannel=bfa48ab43d6bb410VgnVCM100000171f5a0aRCRD&vgnextoid=a8148899fc81c010VgnVCM1000000b205a0aRCRD";"ABUBILLA";"RONDA";"V";"52";"";"";"";"";"MADRID";"MADRID";"28043";"PIOVERA";"HORTALEZA";"445978";"4478481";"40.455238430865464";"-3.6371237934421803";"917 489 360";"917 590 328";"emb_es@mfa.gov.ua";"/contenido/entidadesYorganismos/OrganismosInternacionales/EmbajadasConsulados"; 
7929;"Embajada de Uruguay";"";"";"";"Metro: Ventura Rodríguez (línea 3), Arg&amp;uuml;elles (líneas 3, 4 y 6).  Bus: 62, 74.   Bicimad: Estaciones 113 (paseo Pintor Rosales, 38), 114 (calle Quintana, 11), 115 (calle Evaristo San Miguel, 2).";"";"3";"http://www.madrid.es/sites/v/index.jsp?vgnextchannel=bfa48ab43d6bb410VgnVCM100000171f5a0aRCRD&vgnextoid=8733f3216571c010VgnVCM1000000b205a0aRCRD";"PINTOR ROSALES";"PASEO";"V";"28";"1";"Izquierda";"";"";"MADRID";"MADRID";"28008";"ARGUELLES";"MONCLOA-ARAVACA";"438978";"4475378";"40.42680087237986";"-3.7193764162400194";"917 580 475";"915 478 362";"urumatri@urumatri.com";"/contenido/entidadesYorganismos/OrganismosInternacionales/EmbajadasConsulados"; 
4650433;"Embajada de Uzbekistan";"";"";"";"Metro: Banco de España (línea 2).  Bus: 001, 10, 14, 27, 34, 37, 45, C03.  Bicimad: Estaciones 86 (plaza Cibeles), 65 (calle Antonio Maura, 15).  Aparcamiento: Montalbán (49) calle Montalbán entre calle Alfonso XI y paseo del Prado.";"";"3";"http://www.madrid.es/sites/v/index.jsp?vgnextchannel=bfa48ab43d6bb410VgnVCM100000171f5a0aRCRD&vgnextoid=2113a58d07b35110VgnVCM1000000b205a0aRCRD";"LEALTAD";"PLAZA";"V";"3";"ENTREPLANTA DERECHA";"";"";"";"MADRID";"MADRID";"28014";"LOS JERONIMOS";"RETIRO";"441280";"4474159";"40.41599086503211";"-3.6921175196225273";"913 101 639";"913 103 123";"";"/contenido/entidadesYorganismos/OrganismosInternacionales/EmbajadasConsulados"; 
7930;"Embajada de Venezuela";"";"";"";"Metro: Santiago Bernabéu (línea 10).  Bus: 149, 5, 43.  Bicimad: Estaciones 154 (calle Orense, 36), 153 (avenida del General Perón, 36).  Aparcamientos: General Yag&amp;uuml;e (28), avenida de Brasil del 15 al 19; Orense (22), Avenida General Perón, 27.";"";"3";"http://www.madrid.es/sites/v/index.jsp?vgnextchannel=bfa48ab43d6bb410VgnVCM100000171f5a0aRCRD&vgnextoid=1a43f3216571c010VgnVCM1000000b205a0aRCRD";"POETA JOAN MARAGALL";"CALLE";"V";"1";"13";"";"";"";"MADRID";"MADRID";"28020";"CUATRO CAMINOS";"TETUAN";"441251";"4478298";"40.453273030213545";"-3.6928454510581132";"915 981 200";"915 971 583";"";"/contenido/entidadesYorganismos/OrganismosInternacionales/EmbajadasConsulados"; 
4650495;"Embajada de Vietnam";"";"";"";"Metro: Avenida de la Paz (línea 4).  Bus: 40, 120, 72, 73, 9, 43.";"";"3";"http://www.madrid.es/sites/v/index.jsp?vgnextchannel=bfa48ab43d6bb410VgnVCM100000171f5a0aRCRD&vgnextoid=699857d379b35110VgnVCM1000000b205a0aRCRD";"ALFONSO XIII";"AVENIDA";"V";"54";"";"";"";"";"MADRID";"MADRID";"28016";"HISPANOAMERICA";"CHAMARTIN";"443428";"4478244";"40.452933755417405";"-3.6671749335999184";"915 102 867";"914 157 067";"embavietnam.madrid@yahoo.com";"/contenido/entidadesYorganismos/OrganismosInternacionales/EmbajadasConsulados"; 
99108;"Embajada de Yemen";"";"";"";"Metro: Cuzco (línea 10).  Bus: 147, 27, 40, 5, 149, 126.  Bicimad: Estaciones 157 (paseo de la Castellana, 164), 156 (calle Sor Ángela de la Cruz, 2),  y 238 (calle San Germán, 5), 253 (calle Doctor Fleming, 7).";"";"3";"http://www.madrid.es/sites/v/index.jsp?vgnextchannel=bfa48ab43d6bb410VgnVCM100000171f5a0aRCRD&vgnextoid=aea94f36ff81c010VgnVCM1000000b205a0aRCRD";"CASTELLANA";"PASEO";"V";"117";"8";"D";"";"";"MADRID";"MADRID";"28046";"CASTILLEJOS";"TETUAN";"441431";"4478717";"40.457056423282566";"-3.6907683475311566";"914 119 950";"915 623 865 / 637 864 047";"secretaria@embyemenesp.com";"/contenido/entidadesYorganismos/OrganismosInternacionales/EmbajadasConsulados"; 
7646811;"Embajada de la República Popular Democrática de Corea";"";"";"";"Bus: 161.";"";"3";"http://www.madrid.es/sites/v/index.jsp?vgnextchannel=bfa48ab43d6bb410VgnVCM100000171f5a0aRCRD&vgnextoid=9427227be3d98410VgnVCM2000000c205a0aRCRD";"DARIO APARICIO";"CALLE";"V";"43";"";"";"";"";"MADRID";"MADRID";"28023";"VALDEMARIN";"MONCLOA-ARAVACA";"434653";"4480432";"40.472000264247036";"-3.7708788224251837";"913 078 776";"913 571 850";"info@rpdcemb-madrid.com";"/contenido/entidadesYorganismos/OrganismosInternacionales/EmbajadasConsulados"; 
7866;"Embajada de la República de Corea";"";"";"";"Bus: 7, 70, 107, 29.";"";"3";"http://www.madrid.es/sites/v/index.jsp?vgnextchannel=bfa48ab43d6bb410VgnVCM100000171f5a0aRCRD&vgnextoid=cbe593e5fd61c010VgnVCM1000000b205a0aRCRD";"GONZALEZ AMIGO";"CALLE";"V";"15";"";"";"";"";"MADRID";"MADRID";"28033";"ATALAYA";"CIUDAD LINEAL";"443468";"4479706";"40.4661068662576";"-3.666833442645388";"913 532 000";"913 532 001";"embspain.adm@mofat.go.kr";"/contenido/entidadesYorganismos/OrganismosInternacionales/EmbajadasConsulados"; 
10894462;"Embajada del Nepal";"";"";"";"Metro: Gregorio Marañón (líneas 7 y 10) y Ruben Darío (línea 5).  Autobús: 16, 61, 14, 150, 27, 45, 147, 40, 7, 19, 51, 9, 5, 12.  Bicimad: Estación 141 (paseo de la Castellana, 43).  Aparcamiento: Serrano I (62), calle Serrano entre hermanos Becquer y Marqués de Villamejor.";"";"3";"http://www.madrid.es/sites/v/index.jsp?vgnextchannel=bfa48ab43d6bb410VgnVCM100000171f5a0aRCRD&vgnextoid=6dcac7d6b1a09610VgnVCM1000001d4a900aRCRD";"GENERAL ORAA";"CALLE";"V";"3";"bajo";"izquierda";"";"";"MADRID";"MADRID";"28006";"CASTELLANA";"SALAMANCA";"441655";"4476381";"40.43603074588647";"-3.687904662891031";"911 038 285";"911 038 289";"info@embajadadenepal.es";"/contenido/entidadesYorganismos/OrganismosInternacionales/EmbajadasConsulados";